NO.,CLINIC NAME,CLINIC ADDRESS,E-MAIL ADDRESS,TELEPHONE NO.,LONGITUDE,LATITUDE
1,23JAM KLINIK MEDIVIRON KUALA LUMPUR TRADERS SQUARE,"8-GPLAZA KLTS, 99 JALAN GOMBAKSETAPAK53000WILAYAH PERSEKUTUAN KUALA LUMPUR",greatshah711@gmail.com,0340317483,101.7030828,3.2029661
2,ACTIV CARE CLINIC,"NO 50A, JALAN DESA BAKTIOFF JALAN KLANG LAMAKUALA LUMPUR58100WILAYAH PERSEKUTUAN KUALA LUMPUR",aktivcareclinic@gmail.com,0172115010,101.6851985,3.1029965
3,AMAN PUTRI DISPENSARY,"NO. 21-G,JALAN CEMPAKA SD12/2,BANDAR SRI DAMANSARA,BANDAR SRI DAMANSARA52200WILAYAH PERSEKUTUAN KUALA LUMPUR",amanputridispensary@yahoo.com,03-62626245,101.6064139,3.1938876
4,ASP MEDICAL CLINIC SDN BHD,"ASP MEDICAL CLINIC SDN BHD, MALAYAN BANKING BHD, 30TH FLOOR, MENARA MAYBANK,100 JALAN TUN PERAKKUALA LUMPUR50050WILAYAH PERSEKUTUAN KUALA LUMPUR",aspclinicmb@gmail.com,03-20266388,101.6877722,3.1329096
5,ASP MEDICAL CLINIC SDN.BHD.,"CIMB BANK BERHAD (IN HOUSE CLINIC)MENARA BUMIPUTRA COMMERCE, LEVEL 5, 11 JALAN RAJA LAUTKUALA LUMPUR50350WILAYAH PERSEKUTUAN KUALA LUMPUR",dremma@klinikpembangunan.com,03-26988988,101.6952657,3.1553184
6,BERKAT AMPANG CLINIC,75-4A JLN MAMANDA 1 AMPANG POINTAMPANG68000WILAYAH PERSEKUTUAN KUALA LUMPUR,ampang@kberkat.com.my,03-86903001,101.7524841,3.1579876
7,BERKAT SENTRAL CLINIC,G11 GROUND FLOOR PLATINUM SENTRALJLN STESEN SENTRAL 2KUALA LUMPUR50470WILAYAH PERSEKUTUAN KUALA LUMPUR,sentral@kberkat.com.my,0386903001,101.6879722,3.1358726
8,BLANC MEDICAL CLINIC,"NO. 27-G (TINGKAT BAWAH), JALAN 13/149LBANDAR BARU SERI PETALINGKUALA LUMPUR57000WILAYAH PERSEKUTUAN KUALA LUMPUR",blancmedicalkl@hotmail.com,0395474899,101.686855,3.139003
9,BP DIAGNOSTIC CENTRE SDN. BHD.,"23, JALAN METRO PERDANA BARAT 1TAMAN USAHAWAN KEPONG, KEPONG UTARAKEPONG52100WILAYAH PERSEKUTUAN KUALA LUMPUR",dckepong@bphealthcare.com,03-62593884,101.640911,3.214766
10,BP DIAGNOSTIC CENTRE SDN. BHD.,"485, JALAN PUDUKUALA LUMPUR55100WILAYAH PERSEKUTUAN KUALA LUMPUR",dcpudu@bphealthcare.com,03-92222800,101.71666,3.1316234
11,BP DIAGNOSTIC CENTRE SDN. BHD.,"37, 39, 41 & 43 JALAN 4/96ATAMAN CHERAS MAKMURKUALA LUMPUR46100WILAYAH PERSEKUTUAN KUALA LUMPUR",sccheras@bphealthcare.com,03-91309163,101.7693206,3.0582712
12,BP DIAGNOSTIK,"82, JALAN MEGA MENDUNG, BANDAR PARKBATU 5, JALAN KELANG LAMAKUALA LUMPUR58200WILAYAH PERSEKUTUAN KUALA LUMPUR",dcoug@bphealthcare.com,03-79802061,101.7233107,3.2000968
13,CHAUDHURY MEDIC CENTRE,"NO. 15, JALAN 5 / 65 C,PEKELILING BUSINESS CENTRE OFF JALAN PAHANG BARATKUALA LUMPUR53000WILAYAH PERSEKUTUAN KUALA LUMPUR",cmediccentre@gmail.com,0340211566,101.69676,3.1757
14,CHOY'S WOMEN CLINIC,"NO 20, JALAN BABA, 55100 KUALA LUMPURKUALA LUMPUR55100WILAYAH PERSEKUTUAN KUALA LUMPUR",choytf@gmail.com,0321422001,101.7106035,3.1394148
15,CHYE CLINIC,48 JALAN LANG KUNINGKEPONG BARUKUALA LUMPUR52100WILAYAH PERSEKUTUAN KUALA LUMPUR,chyec179@gmail.com,03-62745814,101.6445431,3.1908005
16,CLINIC,"68, JALAN TUN PERAKKUALA LUMPUR50050WILAYAH PERSEKUTUAN KUALA LUMPUR",sriprimapoliklinik@gmail.com,0320222967,101.6978196,3.1480614
17,CLINIC,"5 JALAN ALAM SUTERA 10 ALAM SUTERA,BUKIT JALIL, 57000 KUALA LUMPURBUKIT JALIL57000WILAYAH PERSEKUTUAN KUALA LUMPUR",infopoliklinikas@gmail.com,0380823069,101.6646235,3.052338
18,CLINIC 365,"191, JALAN PUDU 55100 KUALA LUMPURKUALA LUMPUR55100WILAYAH PERSEKUTUAN KUALA LUMPUR",clinic365.staff@gmail.com,0103653650,101.7097105,3.1385664
19,CLINIC Q CITY N SURGERY,"UNIT 13-3A,LEVEL 13,Q SENTRAL 2A,JALAN STESEN SENTRAL 2,KUALA LUMPUR SENTRALWP KUALA LUMPUR50470WILAYAH PERSEKUTUAN KUALA LUMPUR",clinicqcity@gmail.com,03-22762705,101.6877164,3.1366046
20,DAMANSARA HEIGHTS WELLNESS CLINIQUE SDN BHD,"21-M, JALAN MEDAN SETIA 1,PLAZA DAMANSARA, BUKIT DAMANSARAKUALA LUMPUR50490WILAYAH PERSEKUTUAN KUALA LUMPUR",d.h.wellness.clinique@gmail.com,0320933315,101.6521353,3.1496987
21,DR HAWA,NO 20 JALAN DAMAI RAYA2CHERAS56000WILAYAH PERSEKUTUAN KUALA LUMPUR,klinikdrhawa@gmail.com,0391057024,101.7441242,3.0613379
22,DR LEELA RATOS DAN RAKAN-RAKAN (PUDU) SDN BHD,"413-415, JALAN PUDUKUALA LUMPUR55100WILAYAH PERSEKUTUAN KUALA LUMPUR",ann_naz87@yahoo.com,03-92211255,101.7146985,3.1329625
23,DR NOOR FAZURA SHUIB,"NO.3-G, JALAN 20/B 146DESA TASIK, SUNGAI BESISUNGAI BESI57000WILAYAH PERSEKUTUAN KUALA LUMPUR",klinikdesatasik@gmail.com,0390547441,101.71787,3.057444
24,DR.FATEH MOHAMED & RAKAN-RAKAN SDN. BHD.,"SUITE 222,TINGKAT 2,NO.86,JALAN MASJID INDIA,WP KUALA LUMPUR50100WILAYAH PERSEKUTUAN KUALA LUMPUR",rohana66@gmail.com,03-26932102,101.697178,3.1541816
25,DR.OORLOFF & PARTNERS,"49, JALAN AMPANGKUALA LUMPUR50450WILAYAH PERSEKUTUAN KUALA LUMPUR",boonswee.khor@gmail.com,60122778320,101.6979961,3.1513755
26,"DRS TONG, LEOW, CHIAM & PARTNERS (CHONG DISPENSARY)","7TH FLOOR, MENARA HAP SENG, JALAN P. RAMLEEKUALA LUMPUR50250WILAYAH PERSEKUTUAN KUALA LUMPUR",horebmui@gmail.com,03-21415044,101.707417,3.1528311
27,"DRS TONG, LEOW, CHIAM & PARTNERS, ( CHONG DISPENSARY )","17TH FLOOR, MENARA AMBANK, 8,JALAN YAP KWAN SENG,KUALA LUMPUR50450WILAYAH PERSEKUTUAN KUALA LUMPUR",horebyks@gmail.com,03-21617133,101.7109215,3.1612921
28,DRS YOUNG NEWTON DAN RAKAN-RAKAN,"SUITE 3A,  LEVEL 3, BLOCK 3B, PLAZA SENTRALJALAN STESEN SENTRAL 5, KUALA LUMPUR SENTRALKUALA LUMPUR50470WILAYAH PERSEKUTUAN KUALA LUMPUR",drs.youngnewton_sentral@yahoo.com,03-22734928,101.686099,3.1356693
29,DRS YOUNG NEWTON DAN RAKAN-RAKAN,"LEVEL 2-1, TOWER BLOCK, MENARA MILENIUM, JALAN DAMANLELAPUSAT BANDAR DAMANSARA, DAMANSARA HEIGHTKUALA LUMPUR50490WILAYAH PERSEKUTUAN KUALA LUMPUR",drs.youngnewton_milenium@yahoo.com,03-20933651,101.6620936,3.1466979
30,DRS YOUNG NEWTON DAN RAKAN_RAKAN,"LEVEL 1-01, CAPSQUARE SIGNATURE OFFICENO. 11,  PERSIARAN CAPSQUARE,  CAPITAL  SQUAREKUALA LUMPUR50100WILAYAH PERSEKUTUAN KUALA LUMPUR",drs.youngnewton@yahoo.com,03-26982967,101.7001956,3.1546923
31,DRS YOUNG NEWTON MENARA SHELL,LEVEL 4 MENARA SHELL211 JALAN TUN SAMBATHANKUALA LUMPUR50470WILAYAH PERSEKUTUAN KUALA LUMPUR,drs.youngnewtonms@gmail.com,0327421938,101.6845925,3.1308376
32,"DRS.TONG,LEOW,CHIAM & PARTNERS (CHONG DISPENSARY)","NO.55-59,2ND FLOOR,BANGUNAN ENG CHOON,JALAN AMPANGJALAN AMPANG50450WILAYAH PERSEKUTUAN KUALA LUMPUR",horebsdnbhd@yahoo.com,03-20780397,101.6981589,3.1515214
33,"DRS.TONG,LEOW,CHIAM & PARTNERS (CHONG DISPENSARY)","SUITE 7.02,7TH FLOOR, WISMA MARANNO.28 MEDAN PASARKUALA LUMPUR50050WILAYAH PERSEKUTUAN KUALA LUMPUR",horeb.maran@gmail.com,03-20720492,101.6958438,3.1478148
34,GEORGE CLINIC,"WISMA INDAH498-1-2 JALAN TUN RAZAK,KUALA LUMPUR50400WILAYAH PERSEKUTUAN KUALA LUMPUR",gc@george.com.my,0123702118,101.6922493,3.1734694
35,GLOABL DOCTORS CLINIC,"B3-05, BAYU WALK, MONT KIARA BAYUJALAN KIARA 2MONT KIARA50480WILAYAH PERSEKUTUAN KUALA LUMPUR",majmin.mdamin@globaldoctors.asia,03-62033999,101.6537801,3.1728282
36,"GLOBAL DOCTORS CLINI, KIARA WALK","LOT B1-C6, NO. 18, JALAN KIARA 3MONT KIARAMONT KIARA50480WILAYAH PERSEKUTUAN KUALA LUMPUR",nor.azren@globaldoctors.asia,03-62038999,101.6529013,3.1686623
37,GRIBBLES,"KLINIK SEGARAD4-G4-6 SOLARIS DUTAMAS,NO 1 JALAN DUTAMAS 1SOLARIS DUTAMAS50480WILAYAH PERSEKUTUAN KUALA LUMPUR",Ksegarasolaris@gmail.com,0362111140,101.6653028,3.1718846
38,HEW KUEN LEE MEDICAL CLINIC SDN BHD,"22, JALAN SEPADU, TAMAN UNITEDKUALA LUMPURKUALA LUMPUR58200WILAYAH PERSEKUTUAN KUALA LUMPUR",hewmkl@hotmail.com,03-79840228,101.6753492,3.0833559
39,HIBARI CLINIC,"L2-01, L2-01(T) & L2-20, 1 MONT KIARAKOMPLEKS 1 MONT KIARA, NO.1 JALAN KIARAMONT KIARA50480WILAYAH PERSEKUTUAN KUALA LUMPUR",info@hibariclinic.com,03-62115919,101.6531132,3.1657965
40,HIBARI CLINIC IMC,"SUITE 3.1, LEVEL 3, MENARA IMCNO.8, JALAN SULTAN ISMAILKUALA LUMPUR50250WILAYAH PERSEKUTUAN KUALA LUMPUR",info-imc@hibariclinic.com,03-20224919,101.6969643,3.142758
41,HSC MEDICAL CENTER (KL) SDN BHD,"5-1 & 6-1, MENARA HSC,NO. 187 JALAN AMPANG,KUALA LUMPUR50450WILAYAH PERSEKUTUAN KUALA LUMPUR",zeenat.aman@hsc.com.my,0327870500,101.7664411,3.1325331
42,IHEAL MEDICAL SERVICES SDN BHD,"LEVEL 7 & 8, ANNEXE BLOCK MENARA IGB MID VALLEY CITY. LINGKARAN SYED PUTRAKUALA LUMPUR59200WILAYAH PERSEKUTUAN KUALA LUMPUR",joanne.lau@ihealmedical.com,03-22877398,101.676303,3.1168095
43,IMU SPECIALIST CLINIC,"GROUND FLOOR, ANNEX BLOCK,INTERNATIONAL MEDICAL UNIVERSITY,NO. 126, JLAN JALIL PERKASA 19,KUALA LUMPUR57000WILAYAH PERSEKUTUAN KUALA LUMPUR",Healthcare_Finance@imu.edu.my,03-27317661,101.6871569,3.0597317
44,INTEGRAL OCCUPATIONAL HEALTH SERVICES SDN. BHD.,"LOT 2-05, LEVEL 2, MENARA HLXNO.3, JALAN KIA PENG,KUALA LUMPUR50450WILAYAH PERSEKUTUAN KUALA LUMPUR",drarchana@pluxhealth.com,0321712882,101.7137683,3.1520321
45,JOSE CLINIC AND SURGERY,81B-1 MEDAN BUNUS OFF JALAN MASJID INDIAKUALA LUMPURKUALA LUMPUR50100WILAYAH PERSEKUTUAN KUALA LUMPUR,dgejoe@gmail.com,0326985837,101.6978782,3.1525084
46,KELINIK MURUGASU,"29, JALAN TUN MOHD FUAD 3,TAMAN TUN DR ISMAILKUALA LUMPUR60000WILAYAH PERSEKUTUAN KUALA LUMPUR",mnada3700@gmail.com,03-77282879,101.6277728,3.1414738
47,KELINIK S.SUREN,21 AU 2A/17 TAMAN KERAMATKUALA LUMPUR54200WILAYAH PERSEKUTUAN KUALA LUMPUR,ssuren7@gmail.com,03-42579826,101.7508573,3.1723521
48,KELINIK SETIA,"37, JALAN TUN H. S. LEEKUALA LUMPUR50000WILAYAH PERSEKUTUAN KUALA LUMPUR",ksetiakl@unifi.my,03-20703491,101.6976035,3.1484626
49,KELINIK SETIA,"24, JALAN 2/21D, MEDAN IDAMANBATU 5, JALAN GOMBAKKUALA LUMPUR53100WILAYAH PERSEKUTUAN KUALA LUMPUR",baljitksra@hotmail.com,03-40224466,101.7053258,3.1973689
50,KFSU KLINIK FAMILI&SURGERI UTAMA,"NO.33,JALAN 16/155C,BANDAR BUKIT JALIL 57000BUKIT JALIL,KUALA LUMPURBUKIT JALIL57000WILAYAH PERSEKUTUAN KUALA LUMPUR",admin@utamamed.com,03-89991363,101.668059,3.0600711
51,KKELINIK JAYA,"205 JALAN NEGARA 2, TAMAN MELAWATIULU KLANG53100WILAYAH PERSEKUTUAN KUALA LUMPUR",umayaalv@yahoo.com,03-41077684,101.7501114,3.2090365
52,KL MEDICAL CLINIC,GROUND FLOOR LEVEL (500-0-6)WISMA INDAH JALAN TUN RAZAKKUALA LUMPUR55100WILAYAH PERSEKUTUAN KUALA LUMPUR,clinic@klihc.com.my,0392269999,101.718448,3.133812
53,KLINIK & SURGERI GILL,"229, JALAN SENTUL, SENTUL PASARKUALA LUMPUR51000WILAYAH PERSEKUTUAN KUALA LUMPUR",klinikgill@unifi.my,03-40419948,101.6923616,3.1812366
54,KLINIK AHMAD-SHAN & SURGERI,"A-G-9,JALAN TAMAN SRI SENTOSA,TAMAN SRI SENTOSAKUALA LUMPUR58000WILAYAH PERSEKUTUAN KUALA LUMPUR",kashansentosa@gmail.com,03-77819905,101.6534801,3.0730223
55,KLINIK AISHAH,"33G,JLN TANJUNG SD 13/1,BANDAR SRI DAMANSARAK.LUMPUR52200WILAYAH PERSEKUTUAN KUALA LUMPUR",amaimunni@gmail.com,03-62720984,101.605676,3.187054
56,KLINIK AL IKHWAN,"NO 8,JALAN 30,TAMAN DATO SENU ,SENTULKUALA LUMPUR51000WILAYAH PERSEKUTUAN KUALA LUMPUR",dromarjan@gmail.com,03-40428516,101.6925293,3.1954108
57,KLINIK AL-FATIH WANGSA MELAWATI,"9-G, JALAN WANGSA MELAWATI 4,TAMAN WANGSA MELAWATIKUALA LUMPUR53300WILAYAH PERSEKUTUAN KUALA LUMPUR",klinikalfatihwangsamelawati@gmail.com,0341311200,101.7473506,3.2027311
58,KLINIK ALAM MEDIC,"NO 24, JALAN  14/48A, SENTUL RAYA BOULEVARD,OFF JALAN SENTULKUALA LUMPUR51000WILAYAH PERSEKUTUAN KUALA LUMPUR",parimaladeviramesh@yahoo.com,03-40414768,101.6921581,3.184763
59,KLINIK ALAM MEDIC,"NO 5-G, JALAN PRIMA 1, PUSAT NIAGA METRO PRIMAKEPONG52100WILAYAH PERSEKUTUAN KUALA LUMPUR",lkhuei2000@yahoo.com,03-62578562,101.6407473,3.2132501
60,KLINIK ALAM MEDIC,"NO. 11, JALAN MEDAN MIDAH, TAMAN MIDAH, CHERASKL56000WILAYAH PERSEKUTUAN KUALA LUMPUR",kammidah@gmail.com,03-91340566,101.733566,3.102106
61,KLINIK ALAM MEDIC,"649-1, BATU 4, JALAN IPOH, KUALA LUMPURKUALA LUMPUR51200WILAYAH PERSEKUTUAN KUALA LUMPUR",hksra@hotmail.com,03-62582420,101.6776556,3.1941398
62,KLINIK ALAM MEDIC,"14, JALAN 46/26, TAMAN SRI RAMPAIKUALA LUMPUR53300WILAYAH PERSEKUTUAN KUALA LUMPUR",Rachel_Julius96@yahoo.com,03-40220904,101.7321368,3.195964
63,KLINIK ALAM MEDIC,"KA 2-1-2, BLOCK 2, KUCHAI AVENUE,NO. 39, JALAN KUCHAI MAJU 13, KUCHAI ENTREPRENEURS' PARK,KUALA LUMPUR58200WILAYAH PERSEKUTUAN KUALA LUMPUR",drpushpa12345@gmail.com,03-79800294,101.6912875,3.0863628
64,KLINIK ALAM MEDIC,"NO 9, JALAN 3/125D, DESA PETALINGKUALA LUMPURKUALA LUMPUR57100WILAYAH PERSEKUTUAN KUALA LUMPUR",anandasundariddjps@hotmail.com,03-90541533,101.7049896,3.0826168
65,KLINIK ALAM MEDIC,"D3-3-30 & D3-1-30, NO 1, JALAN 1/152,TAMAN OUG PARKLANEOUG58200WILAYAH PERSEKUTUAN KUALA LUMPUR",kamoug.acctgdept@gmail.com,03-77732796,101.6579141,3.0684331
66,KLINIK ANDA,NO 42 A LORONG DATARAN WANGSADAYTARAN WANGSA MELAWATIWANGSA MELAWATI53300WILAYAH PERSEKUTUAN KUALA LUMPUR,klinik.anda.melawati@gmail.com,0341313771,101.7428597,3.2092417
67,KLINIK ANDA 24JAM,"NO 31G, JALAN SETIAWANGSA 9TAMAN SETIAWANGSAKUALA LUMPUR54200WILAYAH PERSEKUTUAN KUALA LUMPUR",mrszairi@gmail.com,0174886566,101.7378459,3.1802527
68,KLINIK ANTARABANGSA,"NO.18, JALAN WANGSA 2, BUKIT ANTARABANGSAAMPANG68000WILAYAH PERSEKUTUAN KUALA LUMPUR",drrafida@yahoo.com,03-41058142,101.7706909,3.191607
69,KLINIK ANTHONY,365-1 4TH MILE JALAN AMPANGK.L50450WILAYAH PERSEKUTUAN KUALA LUMPUR,cliant@streamyx.com,03-42572875,101.7142178,3.1590323
70,KLINIK AR MEDICARE,"B1-7, DATARAN NIAGA SG. BESI, MIDFIELDS SQUARE WEST,JALAN 11/108C, OFF LEBUHRAYA SG. BESI,SG. BESI57100WILAYAH PERSEKUTUAN KUALA LUMPUR",armedicare17@gmail.com,03-90440017,101.7233698,3.0445225
71,KLINIK AS-SALAM,NO. 16-GROUND FLOOR JALAN AU 5C/14 TAMAN LEMBAH KERAMATTAMAN LEMBAH KERAMAT54200WILAYAH PERSEKUTUAN KUALA LUMPUR,panel.salamkeramat@gmail.com,0133802969,101.6320193,3.1459638
72,KLINIK ASIA,"90, JALAN RAJA LAUTKUALA LUMPUR50350WILAYAH PERSEKUTUAN KUALA LUMPUR",jimmyteoh@hotmail.com,03-26927613,101.69606,3.1646846
73,KLINIK ASIA,"88A, JALAN ALOR,KUALA LUMPUR50200WILAYAH PERSEKUTUAN KUALA LUMPUR",klinikasia@gmail.com,03-21425814,101.7091631,3.146294
74,KLINIK AZZAM,"NO 70, JALAN DANAU NIAGA 1PLAZA USAHAWAN GENTING KLANGKUALA LUMPUR53300WILAYAH PERSEKUTUAN KUALA LUMPUR",klinik.azzam@gmail.com,03-41416636,101.7176531,3.2018533
75,KLINIK BAHAROM,758 JALAN SENTUL 51000 WP KUALA LUMPURSENTUL51000WILAYAH PERSEKUTUAN KUALA LUMPUR,klinikbaharom@yahoo.com,03-40502107,101.6924743,3.1783315
76,KLINIK BAKTI,"A-0-19, BLOK A SRI PENARA, JALAN SRI PERMAISURI 1,BANDAR SRI PERMAISURIKUALA LUMPUR56000WILAYAH PERSEKUTUAN KUALA LUMPUR",klinikbakticheras@gmail.com,03-91744604,101.7099875,3.0970157
77,KLINIK BAMZ HEALTHCARE,"NO.12A GROUND FLOOR, JALAN SRI JATI SATU,TAMAN SRI JATI, OFF JALAN PUCHONGKUALA LUMPUR58200WILAYAH PERSEKUTUAN KUALA LUMPUR",drbhamini88@bamzhealthcare.com,03-77822368,101.6634401,3.0773598
78,KLINIK BANDAR RAYA,"NO. 7, JALAN TELAWI 5, BANGSAR BARUKUALA LUMPURKUALA LUMPUR59100WILAYAH PERSEKUTUAN KUALA LUMPUR",docthina44@yahoo.com.sg,03-22844876,101.6703301,3.1338329
79,KLINIK BANGSAR SOUTH,"1-8 GROUND FLOOR CENTRIO, JALAN PANTAI MURNI, PANTAI HILLPARK, BANGSAR SOUTH59200KUALA LUMPUR59290WILAYAH PERSEKUTUAN KUALA LUMPUR",klinikbangsarsouth@gmail.com,03-22419410,101.6662193,3.1074273
80,KLINIK BOON,"261, JALAN MAHKOTATAMAN MALURI, OFF JALAN CHERASKUALA LUMPUR55100WILAYAH PERSEKUTUAN KUALA LUMPUR",klinikboonz@gmail.com,0392851853,101.7316811,3.1296828
81,KLINIK BRITAIN,"18,JALAN 34/154,TAMAN BUKIT ANGGERIKKUALA LUMPUR56000WILAYAH PERSEKUTUAN KUALA LUMPUR",drjonghu@gmail.com,03-91010943,101.7484522,3.0579479
82,"KLINIK CATTERALL, KHOO AND RAJA MALEK","LOBBY FLOOR, BANGUNAN MING,,JALAN BUKIT NANAS,KUALA LUMPUR50250WILAYAH PERSEKUTUAN KUALA LUMPUR",ckbm@qualitas.com.my,0320783200,101.7007466,3.1507819
83,"KLINIK CATTERALL, KHOO AND RAJA MALEK","SUITE 3B-3-6, LEVEL 3, BLOCK 3B,PLAZA SENTRAL, JALAN STESEN SENTRAL,KUALA LUMPUR50470WILAYAH PERSEKUTUAN KUALA LUMPUR",ckps@qualitas.com.my,0322730244,101.6849033,3.1322911
84,"KLINIK CATTERALL, KHOO AND RAJA MALEK","SUITE G.1B, GROUND FLOOR, WISMA FGVJALAN RAJA LAUTKUALA LUMPUR50350WILAYAH PERSEKUTUAN KUALA LUMPUR",ckws@qualitas.com.my,03-26937670,101.6949294,3.1617171
85,KLINIK CATTERALL. KHOO AND RAJA MALEK,"LOT 6B, LEVEL 2, GREAT EASTERN MALL,303, JALAN AMPANGKUALA LUMPUR50450WILAYAH PERSEKUTUAN KUALA LUMPUR",ckge@qualitas.com.my,03-42535949,101.7369013,3.1600725
86,KLINIK CENTRAL,"NO. 7 & 9, JALAN 6/40, TAMAN PUSAT KEPONGKEPONG52100WILAYAH PERSEKUTUAN KUALA LUMPUR",klinikcentralkepong@gmail.com,03-62509119,101.6554309,3.2008
87,KLINIK CHAN & KHAW,"50-1, JALAN RADIN TENGAHBANDAR BARU SERI PETALINGKUALA LUMPUR57000WILAYAH PERSEKUTUAN KUALA LUMPUR",klinikchankhaw@yahoo.com,03-90585816,101.6920161,3.0684181
88,KLINIK CHERAS BARU,"NO 19, JALAN BUNGA TANJUNG 7, TAMAN MUDA, CHERAS 56100 KUALA LUMPURCHERAS56100WILAYAH PERSEKUTUAN KUALA LUMPUR",rajavee60@yahoo.com.my,03-42913227,101.7595498,3.1199019
89,KLINIK CHEW,"3,JALAN METROWANGSA, SECTION 2,WANGSA MAJUKUALA LUMPUR53300WILAYAH PERSEKUTUAN KUALA LUMPUR",klinikchew@gmail.com,03-41494590,101.7356789,3.2051683
90,KLINIK CHIN,"GROUND FLOOR, MENARA TAKAFUL, JLN SULEIMAN, 50000 KLKUALA LUMPUR50000WILAYAH PERSEKUTUAN KUALA LUMPUR",pcym@yahoo.com,0322736349,101.6971714,3.1425562
91,KLINIK CHIN,"52, JALAN 56, PERSIARAN MERGASTUA,KEPONG BARU,KUALA LUMPUR52100WILAYAH PERSEKUTUAN KUALA LUMPUR",klinikchin@gmail.com,03-62746469,101.6457371,3.2016111
92,KLINIK CHIN,"TING 9, WISMA HARWANT, 106, JLN TUANKU ABDUL RAHMAN, 50100 KLKUALA LUMPUR50100WILAYAH PERSEKUTUAN KUALA LUMPUR",pchinkul@gmail.com,03-26974868,101.6962898,3.15385
93,KLINIK CHIN CHEE YEONG,"NO.32A,JALAN 6/18A,TAMAN MASTIARA,BATU 5 1/2,OFF JALAN IPOH,KUALA LUMPUR51200WILAYAH PERSEKUTUAN KUALA LUMPUR",drchincheeyeong@yahoo.com,03-62413554,101.6738262,3.2111488
94,KLINIK CHONG & SINGH,45 JALAN 1/23 FTAMAN TERATAI MEWAHKUALA LUMPUR53000WILAYAH PERSEKUTUAN KUALA LUMPUR,klinikchongsingh@gmail.com,0340233163,101.7065779,3.2048808
95,KLINIK CITY,"31 TAMAN CITY, JALAN KUCHINGKUALA LUMPUR51200WILAYAH PERSEKUTUAN KUALA LUMPUR",massmarsinda@gmail.com,03-62515234,101.6692979,3.1966607
96,KLINIK DADDY,NO 21G JALAN MELATI UTAMA 4 MELATI UTAMASETAPAK53100WILAYAH PERSEKUTUAN KUALA LUMPUR,klinikdaddy@gmail.com,0341621188,101.7299692,3.2240765
97,KLINIK DAMAI PERDANA,"NO. 8, JALAN DAMAI PERDANA 1/9A, BANDAR DAMAI PERDANACHERAS56000WILAYAH PERSEKUTUAN KUALA LUMPUR",kckong5122@hotmail.com,0391056280,101.7407542,3.0505268
98,KLINIK DAN SURGERI JAS,"3/28A,JALAN UDANG SIAR,TAMAN SRI SEGAMBUT,KUALA LUMPUR52000WILAYAH PERSEKUTUAN KUALA LUMPUR",drtana_jas@yahoo.com,03-62573340,101.6586355,3.1973075
99,KLINIK DAN SURGERI MESRA SDN.BHD.,"46G,JALAN SETIAWANGSA 11A,TAMAN SETIAWANGSAKUALA LUMPUR54200WILAYAH PERSEKUTUAN KUALA LUMPUR",npkrish@hotmail.com,03-42652443,101.7430507,3.1777698
100,KLINIK DAN SURGERI MUDA BARU,"NO 59,JALAN BUNGA TANJUNG 6 A,TAMAN MUDA CHERASKUALA LUMPUR56100WILAYAH PERSEKUTUAN KUALA LUMPUR",ranaesha@ymail.com,03-42940897,101.760284,3.1210009
101,KLINIK DAN SURGERI NG,"BLOK A-G-5, PLAZA PRIMA SETAPAK,NO 35, JALAN PRIMA SETAPAK 5,KUALA LUMPUR53300WILAYAH PERSEKUTUAN KUALA LUMPUR",khng73@yahoo.com,03-40240398,101.7131456,3.1981178
102,KLINIK DAN SURGERI SRI DAMANSARA,"11G, JALAN CEMPAKA SD 12/1, BANDAR SRI DAMANSARAKUALA LUMPUR52200WILAYAH PERSEKUTUAN KUALA LUMPUR",kanniahruby54@gmail.com,03-62728364,101.6073247,3.1944259
103,KLINIK DAN SURGERI THONG,"90, JLAN TEBING TIMOR (EAST ROAD), JINJANG UTARAKEPONG52000WILAYAH PERSEKUTUAN KUALA LUMPUR",kdsthong@gmail.com,03-62507866,101.6624859,3.216963
104,KLINIK DAN SURGERI VAJRA MEDIK,1052 JALAN SENTUL PASARKUALA LUMPUR51000WILAYAH PERSEKUTUAN KUALA LUMPUR,vajramedik@yahoo.com,0340458535,101.6904188,3.1991058
105,KLINIK DANAU KOTA,"NO 22,JALAN 7/23E,TMN DANAU KOTA,SETAPAKKUALA LUMPUR53300WILAYAH PERSEKUTUAN KUALA LUMPUR",danaukotaklinik@yahoo.com,03-40311976,101.7197755,3.2074116
106,KLINIK DANAU KOTA,"LOT 2815,  BATU 6 1/2, JALAN GOMBAK, 53100 WP KUALA LUMPURKUALA LUMPUR53100WILAYAH PERSEKUTUAN KUALA LUMPUR",danaukota.clinic@gmail.com,0340100093,101.7147859,3.2255674
107,KLINIK DESA,"21,JLN 3/125D,DESA PETALINGKUALA LUMPUR57100WILAYAH PERSEKUTUAN KUALA LUMPUR",selva_27@live.com,03-90587623,101.70524,3.08281
108,KLINIK DESA SRI HARTAMAS,31 PLAZA CRYSTALVILLE 1 JALAN 23/70ADESA SRI HARTAMASKUALA LUMPUR50480WILAYAH PERSEKUTUAN KUALA LUMPUR,klinikdsh@gmail.com,03-62012202,101.746107,3.10715
109,KLINIK DR AZIZAH,"G29 JALAN PANDAN PRIMA 1,DATARAN PANDAN PRIMA,KL55100WILAYAH PERSEKUTUAN KUALA LUMPUR",kdapandan@gmail.com,03-92007515,101.7413623,3.1426007
110,KLINIK DR KHALIL,2428 JALAN E 3/6ATAMAN EHSANKEPONG52100WILAYAH PERSEKUTUAN KUALA LUMPUR,drkhalilramli@hotmail.com,03-62724086,101.6247386,3.2221832
111,KLINIK DR NURUL,"NO.29,JALAN DAMAI NIAGA SATU,ALAM DAMAI,CHERAS56000WILAYAH PERSEKUTUAN KUALA LUMPUR",fazmediheart@gmail.com,03-91081189,101.7374129,3.074348
112,KLINIK DR. AALIA,"NO.18, JALAN 20C/146,DESA TASEK SUNGAI BESISUNGAI BESI57000WILAYAH PERSEKUTUAN KUALA LUMPUR",klinikdraalia@gmail.com,01111474818,101.71553,3.069445
113,KLINIK DR. MONTY,"NO 19-G,JALAN PANDAN INDAH 4/34,PANDAN INDAH,CHERAS55100WILAYAH PERSEKUTUAN KUALA LUMPUR",eddie_selvan@yahoo.com,03-42971964,101.7532009,3.1335159
114,KLINIK DR.OORLOFF DAN RAKAN RAKAN,1ST FLR WISMA PENG WAH86-88 JLN BUKIT  BINTANG (ABOVE KFC CORNER OUTLET)KUALA LUMPUR55100WILAYAH PERSEKUTUAN KUALA LUMPUR,clinic2u@gmail.com,03-21423335,101.7101483,3.1461515
115,KLINIK DR.SHASHIKALA SDN.BHD.,"NO.763 BATU  4 1/2 JALAN IPOH ,KUALA LUMPUR51200WILAYAH PERSEKUTUAN KUALA LUMPUR",drshashikala@gmail.com,03-62513099,101.6745512,3.2023691
116,"KLINIK DRS ABRAHAM ,GEORGE & PARTNERS","LEVEL ONE ,MENARA MANULIFE ,JALAN GELENGGANG  .DAMANSARA HEIGHTS 50490 KUALA LUMPURKUALA LUMPUR50490WILAYAH PERSEKUTUAN KUALA LUMPUR",dr.sundarie_kagp@yahoo.com,03-20958182,101.6633385,3.1512976
117,KLINIK ELAMEDIC,"6-11-G, JALAN 14/155B (JALAN JALIL PERKASA14), AKED ESPLANADBUKIT JALIL57000WILAYAH PERSEKUTUAN KUALA LUMPUR",kavitaadchalingam@yahoo.com,03-89939533,101.6798001,3.0508671
118,KLINIK FAMILI,"26,JALAN 59/10,TAMAN KOPERASI POLIS FASA 2BATU CAVES68100WILAYAH PERSEKUTUAN KUALA LUMPUR",nikonkoled@yahoo.com,0361860704,101.6911949,3.2201574
119,KLINIK FAMILI BTS SDN BHD,NO 23 GF JALAN TASIK SELATAN 8BANDAR TASIK SELATANKUALA LUMPUR57000WILAYAH PERSEKUTUAN KUALA LUMPUR,klinikfamilibts@gmail.com,03-90596341,101.7142305,3.067796
120,KLINIK FAMILI SOO,"NO.65G,JALAN KUCHAI MAJU 1,DYNASTY 2,OFF JALAN KUCHAI LAMAKUALA LUMPUR58200WILAYAH PERSEKUTUAN KUALA LUMPUR",drsootk@yahoo.com,03-79838395,101.6871631,3.0909377
121,KLINIK FAMILI TTDI SDN BHD,"LOT 21,GROUND FLOOR, JALAN 2/71,TAMAN TUN DR ISMAILKUALALUMPUR60000WILAYAH PERSEKUTUAN KUALA LUMPUR",kfttdi@yahoo.com,03-77276671,101.6255459,3.146122
122,KLINIK FAMILI WANGSA MELAWATI,NO 5 JALAN WANGSA SETIA 1WANGSA MELAWATIKUALA LUMPUR53300WILAYAH PERSEKUTUAN KUALA LUMPUR,DRAZIZ_FAMILI@YAHOO.COM,0341435067,101.7434654,3.2091136
123,KLINIK FAMILLE OUG SDN BHD,"42,JLN HUJAN EMAS 4, TAMAN OVERSEAS UNIONKUALA LUMPUR58200WILAYAH PERSEKUTUAN KUALA LUMPUR",klinikoug@gmail.com,03-77822390,101.6724594,3.0744412
124,KLINIK FAMILY CARE,"NO.5-0-9 JALAN 3/109F DANAU BUSINESS CENTRE, TAMAN DANAU DESAOLD KLANG ROADKUALA LUMPUR58100WILAYAH PERSEKUTUAN KUALA LUMPUR",familycareclinic@gmail.com,03-79807318,101.6871159,3.1005606
125,KLINIK FAMILYCARE,"NO 5-G, BLOK 6, JALAN JALIL JAYA 7, JALIL LINKBUKIT JALIL57000WILAYAH PERSEKUTUAN KUALA LUMPUR",klinik_familycare@yahoo.com.my,03-89939028,101.6732861,3.0600464
126,KLINIK FAMILYCARE,7 PERSIARAN ARA KIRILUCKY GARDEN BANGSARKUALA LUMPUR59100WILAYAH PERSEKUTUAN KUALA LUMPUR,drselva@clinicfamilycare.com,0322022285,101.6181157,3.1903791
127,KLINIK FAUZIAH DAN RAKAN RAKAN,"111,JALAN KG PANDANKUALA LUMPUR55100WILAYAH PERSEKUTUAN KUALA LUMPUR",anna641@live.com,0392850268,101.73078,3.144219
128,KLINIK GAN DAN LIM,"12, JALAN PANDAN INDAH 1/18, PANDAN INDAHKUALA LUMPUR55100WILAYAH PERSEKUTUAN KUALA LUMPUR",drtkgan@gmail.com,0392747139,101.7518304,3.1302567
129,KLINIK GENTING UNI-MED,"8TH FLOOR,WISMA GENTING,JALAN SULTAN ISMAILKUALA LUMPUR50250WILAYAH PERSEKUTUAN KUALA LUMPUR",klinikunimed@gmail.com,03-21636979,101.7110105,3.1506026
130,KLINIK GOH DAN RAKAN RAKAN,A12A.FLR. WISMA LIM FOO YONG 86 JLN RAJA CHULANKUALA ;LUMPUR50200WILAYAH PERSEKUTUAN KUALA LUMPUR,gohgordon@hotmail.com,03-21410362,101.693996,3.1476473
131,KLINIK H.T. LEE,"7, JALAN MUTIARA RAYATAMAN MUTIARAKUALA LUMPUR56000WILAYAH PERSEKUTUAN KUALA LUMPUR",khtlee1980@gmail.com,0391306806,101.7404047,3.0887111
132,KLINIK HALIM & SURGERI,NO:126 JALAN RAJA ABDULLAHKAMPUNG BARUKUALA LUMPUR50300WILAYAH PERSEKUTUAN KUALA LUMPUR,k_halim_kgb@yahoo.com.my,03-26911964,101.702854,3.1641438
133,KLINIK HASILCARE,"LHDNM, CAWANGAN DUTA UNIT 1, ARAS BAWAH BLOK 11,KOMPLEKS KERAJAAN JALAN DUTA, JALAN TUANKU ABDUL HALIMKUALA LUMPUR.50480WILAYAH PERSEKUTUAN KUALA LUMPUR",draneesah@pluxhealth.com,0362114666,101.6722731,3.1746362
134,KLINIK HEALTHCARE DAN SURGERI,"9, 3RD MILE SQUARE,JALAN KLANG LAMAKUALA LUMPUR58200WILAYAH PERSEKUTUAN KUALA LUMPUR",khshealthcare@gmail.com,03-79720202,101.6773792,3.104111
135,KLINIK HEALTHMATE,"NO.58G, WISMA ALAM DAMAI, JALAN ALAM DAMAI 1,ALAM DAMAICHERAS56000WILAYAH PERSEKUTUAN KUALA LUMPUR",klinikhealthmate@gmail.com,0391078262,101.7427466,3.0712924
136,KLINIK HERO,"NO 22-G, JALAN WANGSA DELIMA 11, D'WANGSA,WANGSA MAJU53300WILAYAH PERSEKUTUAN KUALA LUMPUR",klinikhero@gmail.com,0109285854,101.7410962,3.1974142
137,KLINIK HO N HO,"NO.33&35, JALAN 4/96A, TAMAN CHERAS MAKMURCHERAS56100WILAYAH PERSEKUTUAN KUALA LUMPUR",klinikhonho@gmail.com,03-91309812,101.7401727,3.101624
138,"KLINIK HONG,LEE&YAP","11 JALAN BUNGA TANJUNG TUJUH,TAMAN MUDA,CHERAS.KUALA LUMPUR56100WILAYAH PERSEKUTUAN KUALA LUMPUR",chenghoo23@hotmail.com,03-42935840,101.75958,3.1202093
139,KLINIK HOPE,"19, JLN 2/128, JLN KUCHAI LAMA, TMN GEMBIRATAMAN GEMBIRAKUALA LUMPUR58200WILAYAH PERSEKUTUAN KUALA LUMPUR",klinikhope2@gmail.com,03-79713057,101.6814328,3.0834307
140,KLINIK HUSIN,"NO.36,LORONG RAHIM KAJAI 14,TAMAN TUN DR ISMAIL,KUALA LUMPUR60000WILAYAH PERSEKUTUAN KUALA LUMPUR",janaziz10@gmail.com,03-77101220,101.6229279,3.1554492
141,KLINIK IAN ONG,3A-09 PLAZA 138138 JALAN AMPANGKUALA LUMPUR50450WILAYAH PERSEKUTUAN KUALA LUMPUR,benacre@pd.jaring.my,03-27157488,101.707946,3.1589687
142,KLINIK ICON,"E-05-05A, EAST WING, THE ICONJALAN 1/68F, JALAN TUN RAZAKKUALA LUMPUR50400WILAYAH PERSEKUTUAN KUALA LUMPUR",klinik.icon@gmail.com,03-28566105,101.6942497,3.1405315
143,KLINIK ICON BUKIT JALIL,"C-9-G, LINK 2, JALAN JALIL PERKASA 1,BUKIT JALIL 57000 KUALA LUMPURBUKIT JALIL57000WILAYAH PERSEKUTUAN KUALA LUMPUR",klinik.icon.bukitjalil@gmail.com,0386568818,101.6786783,3.0522998
144,KLINIK IDEAL,"NO 8, JALAN 11/55CTAMAN SETIAWANGSAKUALA LUMPUR54200WILAYAH PERSEKUTUAN KUALA LUMPUR",idealhealthcentre@hotmail.com,03-42666929,101.7419829,3.1852905
145,KLINIK IDZHAM,"9135, JALAN BANDAR EMPAT, TAMAN MELAWATI,NO 18 JALAN MERANTI 2/1,TAMAN MELAWATI JAYA 45000 KUALA SELANGOR ,SELANGORKUALA LUMPUR53100WILAYAH PERSEKUTUAN KUALA LUMPUR",kisbtm01@yahoo.com,03-41073939,101.7519084,3.2106561
146,KLINIK IDZHAM,"NO. 2G, JALAN JERNAI 3, MEDAN IDAMAN, BATU 5, JALAN GOMBAKKUALA LUMPUR53100WILAYAH PERSEKUTUAN KUALA LUMPUR",klinikidzham@gmail.com,03-40229007,101.7119289,3.2117391
147,KLINIK IDZHAM,"NO. 41/AAB, PERSIARAN MPAJ, JALAN PANDAN INDAHPANDAN INDAHKUALA LUMPUR55100WILAYAH PERSEKUTUAN KUALA LUMPUR",kisbpi@yahoo.com,03-42801945,101.7529544,3.1277953
148,KLINIK IDZHAM,"NO. 2-2-4, PRIMA PENINSULA, JALAN SETIAWANGSA 11,TAMAN SETIAWANGSA,KUALA LUMPUR54200WILAYAH PERSEKUTUAN KUALA LUMPUR",kisbts@yahoo.com,03-42563939,101.7431353,3.179509
149,KLINIK IMAN,"NO 4, JALAN PDS 1, OFF JALAN AU3/10TAMAN SEPAKATKUALA LUMPUR54200WILAYAH PERSEKUTUAN KUALA LUMPUR",kliman2002@gmail.com,03-41068463,101.7129131,3.1386564
150,KLINIK IMED,A-13 JALAN TUANKU 1TAMAN SALAK SELATANKUALA LUMPUR57100WILAYAH PERSEKUTUAN KUALA LUMPUR,frontdesk@imed2u.com,0172812685,101.6826804,3.1628831
151,KLINIK INDAH,NO 10 JALAN PANDAN INDAH1/23D PANDAN INDAHKUALA LUMPUR55100WILAYAH PERSEKUTUAN KUALA LUMPUR,saromaniam@hotmail.com,0392742658,101.7455028,3.1319469
152,KLINIK INTER-MED,"NO. 43, JALAN BANGSAR,KUALA LUMPUR59000WILAYAH PERSEKUTUAN KUALA LUMPUR",intermedbangsar@gmail.com,03-22828027,101.67925,3.1282
153,KLINIK INTER-MED,"43, JALAN TUN TAN SIEW SIN, KUALA LUMPURWP KUALA LUMPURKUALA LUMPUR50050WILAYAH PERSEKUTUAN KUALA LUMPUR",intermed_53@yahoo.com,03-20722087,101.6982163,3.1461937
154,KLINIK K K WONG,329 JALAN PAHANG SETAPAK KLKL53000WILAYAH PERSEKUTUAN KUALA LUMPUR,wongketkeong@gmail.com,03-40235983,101.7024723,3.1864547
155,KLINIK KEE,NO 10 JALAN BANDAR DUA TAMAN MELAWATIKUALA LUMPUR53100WILAYAH PERSEKUTUAN KUALA LUMPUR,KLINIKKEEMELAWATI@GMAIL.COM,03-41081678,101.7521378,3.2091861
156,KLINIK KELUARGA,"NO.28, JALAN 1A/27ASEKSYEN 1 WANGSA MAJUSETAPAK53300WILAYAH PERSEKUTUAN KUALA LUMPUR",Kkis_59@yahoo.com,03-41494007,101.7322012,3.2014274
157,KLINIK KELUARGA,"18-0-3 TAMAN BUKIT ANGKASA, PANTAI DALAMKUALA LUMPUR59200WILAYAH PERSEKUTUAN KUALA LUMPUR",drzaikk@yahoo.co.uk,0322849750,101.6697211,3.108318
158,KLINIK KELUARGA DR DAHLIA (MENARA MATRADE),"4TH FLOOR EAST WING MENARA MATRADE, JALAN KHIDMAT USAHA OFF JALAN DUTA,KUALA LUMPUR50480WILAYAH PERSEKUTUAN KUALA LUMPUR",klinikmatrade@yahoo.com,03-62036542,101.6667175,3.1775662
159,KLINIK KELUARGA DR. DAHLIA,"35G, JALAN 3A/2B TAMAN DESA BAKTISELAYANG68100WILAYAH PERSEKUTUAN KUALA LUMPUR",clinicdahliatdb@gmail.com,03-61379717,101.6612254,3.2425752
160,KLINIK KELUARGA WAN ISSAC,"NO 58, JALAN DAMAI RAYA 2,DAMAI NIAGA, ALAM DAMAI,CHERAS56000WILAYAH PERSEKUTUAN KUALA LUMPUR",issac.klinik1issac@gmail.com,03-89587989,101.7440884,3.0635436
161,KLINIK KHOR,42 JALAN 8/23E DANAU KOTAKUALA LUMPUR53300WILAYAH PERSEKUTUAN KUALA LUMPUR,yeetmun@gmail.com,03-41499988,101.7207886,3.2058576
162,KLINIK KIP SDN BHD,"NO.10,JALAN KIP 1,TAMAN PERINDUSTRIAN KIP,KEPONG52200WILAYAH PERSEKUTUAN KUALA LUMPUR",klinikkip@yahoo.com,03-62764346,101.6071935,3.2056119
163,KLINIK KITA,"12G, JALAN PANDAN INDAH 4/6,PANDAN INDAH,KUALA LUMPUR55100WILAYAH PERSEKUTUAN KUALA LUMPUR",alprompin@yahoo.com,03-42945821,101.7550073,3.1303376
164,KLINIK KITA,"UNIT 43-0-12, GROUND FLOOR, JALAN 1/48A,SENTUL PERDANA, BANDAR BARU SENTULKUALA LUMPUR51000WILAYAH PERSEKUTUAN KUALA LUMPUR",kksentulperdana@yahoo.com,03-40400446,101.6895585,3.2074537
165,KLINIK KITA POLIKLINIK DAN SURGERI,"KLINIK KITA,NO. 13G,JLN HILIR 1,TMN SRI ANGSANA HILIR,KG. PANDAN,K. LUMPUR55100WILAYAH PERSEKUTUAN KUALA LUMPUR",kkbba516@gmail.com,03-92821021,101.7443356,3.1489888
166,KLINIK KOO,"92, JALAN BURHANUDDIN HELMI,TAMAN TUN DR ISMAIL,KUALA LUMPUR60000WILAYAH PERSEKUTUAN KUALA LUMPUR",klinikkoo@hotmail.com,03-77282379,101.6214273,3.1526079
167,KLINIK KU,"BLOK 1A, 9-1, JALAN WANGSA DELIMA 13,WANGSA LINKWANGSA MAJU53300WILAYAH PERSEKUTUAN KUALA LUMPUR",klinikkuwangsamaju@gmail.com,03-41490801,101.7426155,3.1975107
168,KLINIK KWAN,KLINIK KWAN 1-0-12 DIAMOND SQUARE JALAN 1/50OFF JALAN GOMBAKKUALA LUMPUR53000WILAYAH PERSEKUTUAN KUALA LUMPUR,clinickwan7715@gmail.com,0123300405,101.706156,3.19497
169,KLINIK KWAN & CHONG,100G JALAN RIMBUNAN RAYATAMAN LAMAN RIMBUNANKEPONG52100WILAYAH PERSEKUTUAN KUALA LUMPUR,frontdesk@healthcare-2u.com,0179930023,101.6488717,3.2122027
170,KLINIK LEE,"66 JALAN CERDAS, TAMAN CONNAUGHT, 6TH MILE CHERAS,KUALA LUMPUR56000WILAYAH PERSEKUTUAN KUALA LUMPUR",drdavidleebankin@gmail.com,03-91017202,101.7372995,3.08144
171,KLINIK LEE,"NO. 71, JALAN HAJI HUSSEIN,50300 WP KUALA LUMPURKUALA LUMPUR50300WILAYAH PERSEKUTUAN KUALA LUMPUR",Shanyan46@Hotmail.my,03-26930467,101.6992106,3.1656571
172,KLINIK LEELA,"249 JALAN MAHKOTA, 55100 KUALA LUMPURKUALA LUMPUR55100WILAYAH PERSEKUTUAN KUALA LUMPUR",leela249@hotmail.com,03-92851761,101.7330041,3.1278847
173,KLINIK LEELA,NO.69 JALAN 3/76DDESA PANDANKUALA LUMPUR55100WILAYAH PERSEKUTUAN KUALA LUMPUR,klinikleela.dp@gmail.com,0392017279,101.7503253,3.1560618
174,KLINIK LEN SENG,76G JALAN 1TAMAN LEN SENGCHERAS56000WILAYAH PERSEKUTUAN KUALA LUMPUR,admaanhs@gmail.com,0391075362,101.744906,3.07427
175,KLINIK LEONG,"NO 208, JALAN MAHKOTA, TAMAN MALURICHERAS55100WILAYAH PERSEKUTUAN KUALA LUMPUR",cheongpeng@yahoo.com,03-92020681,101.7323201,3.12925
176,KLINIK LIEW & SURGERI,"LOT 18, JALAN 54 DESA JAYA,KEPONG52100WILAYAH PERSEKUTUAN KUALA LUMPUR",lhliew@hotmail.com,0362763505,101.6318701,3.2134836
177,KLINIK LIFE CARE,"KLINIK LIFE CARE, GROUND FLOOR, WISMA LIFE CARE, NO.5 JALAN KERINCHIBANGSAR SOUTH59200WILAYAH PERSEKUTUAN KUALA LUMPUR",kliniklc@lifecare.com.my,03-22421656,101.6636141,3.1101571
178,KLINIK LIM,"52, GROUND FLOOR, JALAN LANG KUNINGKEPONG BARUKUALA LUMPUR52100WILAYAH PERSEKUTUAN KUALA LUMPUR",mingaun@yahoo.com,03-62741471,101.64473,3.192777
179,KLINIK LOPEZ,"LOT G-30, GROUND FLOOR, VIVA HOME MALL,NO. 85, JALAN LOKE YEWCHERAS55200WILAYAH PERSEKUTUAN KUALA LUMPUR",kliniklopez@gmail.com,03-27427223,101.7189936,3.1225319
180,KLINIK LOW,"20, JALAN 1/27B,DESA SETAPAKKUALA LUMPUR53300WILAYAH PERSEKUTUAN KUALA LUMPUR",kliniklow601@gmail.com,03-41497801,101.7340972,3.2063358
181,KLINIK LUDHER SDN BHD,"4-1, COMMERCE ONE, LORONG 2/173COFF JALAN KELANG LAMAWILAYAH PERSEKUTUAN58200WILAYAH PERSEKUTUAN KUALA LUMPUR",klok@qualitas.com.my,03-77813542,101.6714313,3.0849942
182,KLINIK MAAMOR,"NO. 8G, JALAN 20C/146, DESA TASIK,SUNGAI BESI57000WILAYAH PERSEKUTUAN KUALA LUMPUR",masteh77@yahoo.com,03-90593651,101.7142925,3.0719828
183,KLINIK MAJU SDN BHD,"NO 7 JALAN 2A/6TAMAN SETAPAK INDAH, SETAPAKKUALA LUMPUR53300WILAYAH PERSEKUTUAN KUALA LUMPUR",jenniejena_j@yahoo.com,03-40211235,101.718117,3.210222
184,KLINIK MALURI,"198, JALAN MAHKOTA, TAMAN MALURI,CHERASKUALA LUMPUR55100WILAYAH PERSEKUTUAN KUALA LUMPUR",lee.shereen@yahoo.com,03-92852349,101.7321126,3.1296439
185,KLINIK MANIRAJ,"2-11A, CITY ONE PLAZAJALAN MUNSHI ABDULLAHKUALA LUMPUR50100WILAYAH PERSEKUTUAN KUALA LUMPUR",klinikmaniraj@gmail.com,0326937188,101.6980047,3.1552049
186,KLINIK MED HEALTH,"A6, JALAN DANAU LUMAYAN 1 , BANDAR SRI PERMAISURIKUALA LUMPUR56000WILAYAH PERSEKUTUAN KUALA LUMPUR",medhealthnic@gmail.com,03-91717889,101.715832,3.1001687
187,KLINIK MEDI PEMBANGUNAN,"TINGKAT BAWAH, BANGUNAN MALAYSIAN RE,NO.17, LORONG DUNGUN,DAMANSARA HEIGHTSKUALA LUMPUR50490WILAYAH PERSEKUTUAN KUALA LUMPUR",drmimi@klinikpembangunan.com,03-20944688,101.6656162,3.1545361
188,KLINIK MEDI PESONA,NO 1 GROUND FLOORJALAN BANGSAR UTAMA 3 BANGSAR UTAMAKL59000WILAYAH PERSEKUTUAN KUALA LUMPUR,neetzar@yahoo.com,03-22881439,101.6781558,3.1269423
189,KLINIK MEDI UK,"494 JALAN PUDU,KUALA LUMPURKUALA LUMPUR55100WILAYAH PERSEKUTUAN KUALA LUMPUR",yeechianglee@yahoo.co.uk,03-92221678,101.7140241,3.1339734
190,KLINIK MEDI-LINK,"LOT 1.33, TINGKAT 1, WISMA MPLJALAN RAJA CHULANKUALA LUMPUR50200WILAYAH PERSEKUTUAN KUALA LUMPUR",medilink132@yahoo.com,03-20319899,101.707056,3.150523
191,KLINIK MEDIC,4 A JALAN DAMAI PERDANA 1/8CBANDAR DAMAI PERDANAKUALA LUMPUR56000WILAYAH PERSEKUTUAN KUALA LUMPUR,cajoton@gmail.com,03-91021346,101.7404029,3.0472844
192,KLINIK MEDIC CITY,"NO.92,GROUND FLOOR,JLN TUN SAMBANTHAN,50470 BRICKFIEDLS KUALA LUMPURBRICKFIELDS50470WILAYAH PERSEKUTUAN KUALA LUMPUR",mediccity@ymail.com,03-22742730,101.6871713,3.1313086
193,KLINIK MEDICA,"NO.3,GROUND FLOOR,JALAN 6/155,BUKIT JALIL INTEGRATED BUSINESS PARK(BUKIT OUG),KUALA LUMPUR58200WILAYAH PERSEKUTUAN KUALA LUMPUR",klinikmedica@gmail.com,03-77815350,101.664844,3.061986
194,KLINIK MEDICAL ASSOCIATES K.L,"22,3RD FLOOR MEDAN PASARKUALA LUMPUR50050WILAYAH PERSEKUTUAN KUALA LUMPUR",kmakl85@gmail.com,03-20703585,101.6959814,3.1473575
195,KLINIK MEDICARE,135-M JALAN MAHARAJALELAKUALA LUMPUR50150WILAYAH PERSEKUTUAN KUALA LUMPUR,d_malar1982@yahoo.com,03-21411306,101.70238,3.1367
196,KLINIK MEDICENTRE,"LOT LG,11 TINGKAT LG,KOMPLEKS DESA KEPONG,JALAN KEPONGKUALA LUMPUR52100WILAYAH PERSEKUTUAN KUALA LUMPUR",medicentre@ymail.com,03-62804259,101.6303428,3.2096844
197,KLINIK MEDICURVE,"NO. 91, JALAN RIMBUNAN RAYA 1,LAMAN RIMBUNANKEPONG52100WILAYAH PERSEKUTUAN KUALA LUMPUR",brandonlim.2177@yahoo.com,03-62437886,101.6491375,3.2115322
198,KLINIK MEDILOVE,"KLINIK MEDILOVENO 8,JALAN RIMBUNAN RAYA,LAMAN RIMBUNANKEPONG52100WILAYAH PERSEKUTUAN KUALA LUMPUR",mediloveclinic@gmail.com,0362420885,101.6516647,3.2106482
199,KLINIK MEDIMETRO,"32, JALAN 4/76C, DESA PANDANKUALA LUMPUR55100WILAYAH PERSEKUTUAN KUALA LUMPUR",drmesepiahhamid@yahoo.com,03-92830233,101.7372695,3.1485909
200,KLINIK MEDIONE,"UNIT 8.05,LEVEL 8,MENARA TA ONE,22,JLN P.RAMLEE,KUALA LUMPUR50250WILAYAH PERSEKUTUAN KUALA LUMPUR",klinikmedionekl@gmail.com,03-21815699,101.7097635,3.1565305
201,KLINIK MEDIPULSE BUKIT JALIL,"NO52 GROUND FLOOR, JALAN 17/155CBANDAR BUKIT JALILBUKIT JALIL57000WILAYAH PERSEKUTUAN KUALA LUMPUR",medipulse.bjalil@gmail.com,0389995205,101.7472299,3.1050749
202,KLINIK MEDISINAR,"NO 25, JALAN 5/38D, TAMAN SRI SINAR, SEGAMBUTKL51200WILAYAH PERSEKUTUAN KUALA LUMPUR",klinikmedisinar@gmail.com,0367301608,101.6534873,3.1891083
203,KLINIK MEDISQUARE,"B 0-8, MEGAN AVENUE 2JALAN YAP KWAN SENGKUALA LUMPUR50450WILAYAH PERSEKUTUAN KUALA LUMPUR",medisquare@hotmail.com,0321811324,101.712734,3.1628757
204,KLINIK MEDIVIRON,"B-0-5, JALAN 12.144A, TAMAN BUKIT CHERAS.CHERASKUALA LUMPUR56000WILAYAH PERSEKUTUAN KUALA LUMPUR",dinesh.paranchothy@gmail.com,03-91013184,101.74865,3.072344
205,KLINIK MEDIVIRON,"NO.1092G, GROUND FLOOR, JALAN SENTUL PASARKUALA LUMPUR51000WILAYAH PERSEKUTUAN KUALA LUMPUR",medisentul2003@live.com,03-40445609,101.6901517,3.2003662
206,KLINIK MEDIVIRON,"NO.46,JALAN TELAWI,BANGSAR BARUKUALA LUMPUR59100WILAYAH PERSEKUTUAN KUALA LUMPUR",susunantelawi@gmail.com,0322829815,101.6705589,3.1309653
207,KLINIK MEDIVIRON,"4,JALAN 3/50C,TAMAN SETAPAK INDAH JAYA,OFF JALAN GENTING KLANGSETAPAK53300WILAYAH PERSEKUTUAN KUALA LUMPUR",harjeet7@streamyx.com,03-40212620,101.7091065,3.1983822
208,KLINIK MEDIVIRON,"NO.23, JALAN BUNGA MELATI, TAMAN MAJU JAYA,AMPANG56100WILAYAH PERSEKUTUAN KUALA LUMPUR",arulrajrajoo@gmail.com,03-92009945,101.7430195,3.1286277
209,KLINIK MEDIVIRON,"12, GROUND FLOOR, BLOK A, JALAN RAMPAI NIAGA 1,RAMPAI BUSINESS PARKKUALA LUMPUR53300WILAYAH PERSEKUTUAN KUALA LUMPUR",grayson.ent@gmail.com,03-41495122,101.7293424,3.1986188
210,KLINIK MEDIVIRON,31 JALAN MEDAN PUTRA 1MEDAN PUTRA BUSINESS CENTREBANDAR MANJALARA52200WILAYAH PERSEKUTUAN KUALA LUMPUR,drvehll@yahoo.com,03-62729581,101.625682,3.1928256
211,KLINIK MEDIVIRON,"30, JALAN 2/101C, CHERAS BUSINESS CENTRE, BATU 5, JALAN CHERASCHERAS56100WILAYAH PERSEKUTUAN KUALA LUMPUR",medcbc1@live.com,03-91328671,101.7394905,3.0989376
212,KLINIK MEDIVIRON,"KLINIK MEDIVIRONN0 27 JALAN PERMAISURI 8,BDR SRI PERMAISURI CHERASCHERAS56000WILAYAH PERSEKUTUAN KUALA LUMPUR",klinikmediviron4930@yahoo.com,0391724930,101.7082047,3.102057
213,KLINIK MEDIVIRON,"NO.4, JLN DAMAI PERDANA 5/1A,BANDAR DAMAI PERDANACHERAS56000WILAYAH PERSEKUTUAN KUALA LUMPUR",medivironks_bdp@yahoo.com,03-91002393,101.7430502,3.0547034
214,KLINIK MEDIVIRON,"LG8A & LG9  LOWER GROUND FLOOR, WISMA UOA II21, JALAN PINANGKUALA LUMPUR50450WILAYAH PERSEKUTUAN KUALA LUMPUR",chenth@hotmail.com,03-21635699,101.7120336,3.1527054
215,KLINIK MEDIVIRON,"NO 3-0-3, MEGAN CORPORATE PARK,JALAN 1/125E, DESA PETALINGKUALA LUMPUR57100WILAYAH PERSEKUTUAN KUALA LUMPUR",medivirondp@gmail.com,03-90587607,101.7019161,3.0832148
216,KLINIK MEDIVIRON,"GF 18, THE WATERFRONT, 5 PERSIARAN RESIDEN, DESA PARK CITYKEPONG52200WILAYAH PERSEKUTUAN KUALA LUMPUR",veelan98@hotmail.com,03-62808395,101.6277335,3.1869487
217,KLINIK MEDIVIRON,"NO 22, BLOK 5, JALIL LINK, JALAN JALIL JAYA 6BUKIT JALIL57000WILAYAH PERSEKUTUAN KUALA LUMPUR",medivironjalil@gmail.com,03-89939915,101.6738064,3.0589742
218,KLINIK MEDIVIRON,"NO.10,JALAN 25/70A , DESA SRI HARTAMASKL50480WILAYAH PERSEKUTUAN KUALA LUMPUR",klinik_1@yahoo.com,03-23008399,101.6501371,3.1626409
219,KLINIK MEDIVIRON,"37G, JALAN MAJU 8,OFF JALAN KLANG LAMA,KUCHAI LAMA58200WILAYAH PERSEKUTUAN KUALA LUMPUR",medikuchailama@yahoo.com,03-79876990,101.68778,3.0897144
220,KLINIK MEDIVIRON,"NO 8, JALAN UTARA OFF,JALAN IMBIKUALA LUMPUR55100WILAYAH PERSEKUTUAN KUALA LUMPUR",azizi_73@hotmail.com,03-21485666,101.7155205,3.145603
221,KLINIK MEDIVIRON,"645,JALAN IPOH BATU 4 1/2KUALA LUMPUR51200WILAYAH PERSEKUTUAN KUALA LUMPUR",klinikmedivironjlnipoh@gmail.com,03-62424999,101.6797964,3.1946254
222,KLINIK MEDIVIRON,"NO. 7 & 7-1 (GROUND & 1ST FLOOR),JALAN 14/27B, TAMAN DESA SETAPAK,WANGSA MAJU53300WILAYAH PERSEKUTUAN KUALA LUMPUR",medivironsetapak@yahoo.com.my,0341312301,101.7335138,3.2057351
223,KLINIK MEDIVIRON,"17, GROUND FLOOR, BANGUNAN TONG NAMJALAN TUN SAMBANTHAN 7BRICKFIELDS50470WILAYAH PERSEKUTUAN KUALA LUMPUR",mahadhirakmal@gmail.com,0322606072,101.6934867,3.1396538
224,KLINIK MEDIVIRON DESA AMAN PURI,"NO 2-3AA,JALAN DESA 1/3,DESA AMAN PURIKEPONG52100WILAYAH PERSEKUTUAN KUALA LUMPUR",mediviron2703@gmail.com,0362617447,101.6156809,3.2115018
225,KLINIK MEDIVIRON DR LIM HENG HUAT DAN RAKAN-RAKAN,"NO.55 GROUND FLOOR,JALAN TASIK UTAMA 6,MEDAN NIAGATASIK DAMAI.SUNGAI BESI57000WILAYAH PERSEKUTUAN KUALA LUMPUR",wseriya@yahoo.com,03-90546599,98.6722227,3.5951956
226,KLINIK MEDIVIRON JALAN KUCHING,"A-G-5, PUSAT KOMERSIAL JALAN KUCHING, JALAN KEPAYANG OFF JALAN KUCHINGKUALA LUMPUR51200WILAYAH PERSEKUTUAN KUALA LUMPUR",klinikmedivironjk@gmail.com,0124010230,101.669484,3.196741
227,KLINIK MEDIVIRON JALAN PASAR (PUDU),"123, JALAN PASARKUALA LUMMPUR55100WILAYAH PERSEKUTUAN KUALA LUMPUR",medivironjlnpasar.pudu@gmail.com,0392263153,101.7170601,3.1349353
228,KLINIK MEDIVIRON MID VALLEY,"55-1, LEVEL 1, THE BOULEVARD, MID VALLEY, LINGKARAN SYED PUTRA, KUALA LUMPURKUALA LUMPUR59200WILAYAH PERSEKUTUAN KUALA LUMPUR",klinik_mediviron@yahoo.com,03-22822340,101.6775025,3.1192423
229,KLINIK MEDIVIRON OUG PARKLANE,"A2-0-17, JALAN 1/152, OFF JALAN PUCHONG,TAMAN OUG PARKLANEPUCHONG58200WILAYAH PERSEKUTUAN KUALA LUMPUR",klinikmediviron.ougparklane@gmail.com,03-77733317,101.657543,3.0692781
230,KLINIK MEDIVIRON PANDAN INDAH,"7G, JALAN PANDAN INDAH4/8 PANDAN INDAHCHERAS55100WILAYAH PERSEKUTUAN KUALA LUMPUR",pandanindah42@gmail.com,03-42961282,101.7440276,3.1319248
231,KLINIK MEDIVIRON PPAM BUKIT JALIL,"G-03, PPA1M, NO.12, LEBUHRAYA BUKIT JALILBUKIT JALIL57000WILAYAH PERSEKUTUAN KUALA LUMPUR",klinikmediviron.ppa1mbj@gmail.com,0327267426,101.6965912,3.0533433
232,KLINIK MEDIVIRON PUDU ULU,"1A, JALAN PUDU ULUCHERAS56100WILAYAH PERSEKUTUAN KUALA LUMPUR",mediviron.puduulu@gmail.com,0392266151,101.7290781,3.1216237
233,KLINIK MEDIVIRON QUILL CITY MALL,"3-02, QUILL CITY MALL, JALAN SULTAN ISMAILKUALA LUMPURKUALA LUMPUR50490WILAYAH PERSEKUTUAN KUALA LUMPUR",drgeet@hotmail.com,0123222177,101.7000562,3.1598664
234,KLINIK MEDIVIRON SETAPAK,"NO.27, BLOCK A , PLATINUM WALKJALAN LANGKAWI 2SETAPAK53300WILAYAH PERSEKUTUAN KUALA LUMPUR",klinikmedivironsetapak@gmail.com,03-41415958,101.7184528,3.2070828
235,KLINIK MEDIVIRON SRI DAMANSARA,"LOT A-G-1, BLOCK A, ATIVO PLAZA, 1 JALAN PJU 9/1, BANDAR SRI DAMANSARAKUALA LUMPUR52200WILAYAH PERSEKUTUAN KUALA LUMPUR",kmsd95@gmail.com,03-62627581,101.6168739,3.1953635
236,KLINIK MEDIVIRON SRI SENTOSA,"NO L1-013A TIMES 89 , BUSINESS PLAZA , TAMAN SRI SENTOSA, JALAN KLANG LAMAKUALA LUMPUR58000WILAYAH PERSEKUTUAN KUALA LUMPUR",medsentosa@yahoo.com,03-77855206,101.662881,3.0832086
237,KLINIK MEDIVIRON-POLIKLINIK DAN SURGERI,"NO.17G, JALAN SETIAWANGSA 9(9A/55A)TAMAN SETIAWANGSAKUALA LUMPUR54200WILAYAH PERSEKUTUAN KUALA LUMPUR",drmariamrazak@yahoo.com,03-42529210,101.7414814,3.1780371
238,KLINIK MEGA SDN BHD,"76, JALAN RADIN TENGAHSRI PETALING57000WILAYAH PERSEKUTUAN KUALA LUMPUR",sripetaling@klinikmega.com,03-90573969,101.6909899,3.06843
239,KLINIK MEIN & SURGERI,"NO.20, JALAN SERI SENTOSA 1A/133, BATU 6 1/2,JALAN KELANG LAMA, 58000 W.P KUALA LUMPURTMN SERI SENTOSA58000WILAYAH PERSEKUTUAN KUALA LUMPUR",klinikmeinsurgeri@yahoo.com,03-77852990,101.656114,3.0705663
240,KLINIK MELATI UTAMA,"NO 65, JALAN MELATI UTAMA 4, MELATI UTAMASETAPAK53200WILAYAH PERSEKUTUAN KUALA LUMPUR",klinikmelatiutama@yahoo.com,03-41610643,101.7309175,3.223186
241,KLINIK MENARA,"SUITE 4.02, MENARA PROMET, JALAN SULTAN ISMAIL,KUALA LUMPUR50250WILAYAH PERSEKUTUAN KUALA LUMPUR",oommenshanta@yahoo.com,03-21412034,101.7099491,3.1511905
242,KLINIK MENARA,75 A/1 JALAN KERAMATKUALA LUMPUR54000WILAYAH PERSEKUTUAN KUALA LUMPUR,kmenara@gmail.com,03 42572625,101.7289514,3.1668825
243,KLINIK MENARA TM,"GROUND FLOOR,BANGUNAN MENARA TELEKOMJALAN PANTAI BAHARUKUALA LUMPUR50672WILAYAH PERSEKUTUAN KUALA LUMPUR",viji@mahsa.edu.my,03-22834441,101.6651455,3.1157308
244,KLINIK MENJALARA,"NO 47 , JALAN 9/62A , BANDAR MENJALARA , 52200 KEPONG , KUALA LUMPURKEPONG52200WILAYAH PERSEKUTUAN KUALA LUMPUR",nurse.klinikmenjalara@yahoo.com,0367301106,101.632055,3.193282
245,KLINIK METRO,"23-G, JALAN SRI PERMAISURI 9BANDAR SRI PERMAISURICHERAS56000WILAYAH PERSEKUTUAN KUALA LUMPUR",klinikmetrobsp@gmail.com,0328568421,101.7164292,3.1071905
246,KLINIK MONT HOPE,"B2-3, PLAZA DAMAS 3, NO.63, JALAN SRI HARTAMAS 1KUALA LUMPUR50480WILAYAH PERSEKUTUAN KUALA LUMPUR",clinic@monthope.com,03-64119839,101.6561856,3.1629385
247,KLINIK MURNI,NO 17 JALAN DATO SENUSENTUL51000WILAYAH PERSEKUTUAN KUALA LUMPUR,klinik.murni@yahoo.com,03-40453245,101.6919913,3.1951424
248,KLINIK MURNI,"NO 8, JALAN 1/2 D, TAMAN SRI MURNI,OFF JALAN IPOH,KUALA LUMPUR68100WILAYAH PERSEKUTUAN KUALA LUMPUR",klinik_murni@yahoo.com,0361280174,101.6611898,3.235388
249,KLINIK MUTIARA,"NO. 1-1, JALAN WANGSA DELIMA 2A,PUSAT BANDAR WANGSA MAJUWANGSA MAJU53300WILAYAH PERSEKUTUAN KUALA LUMPUR",ahmizeta@yahoo.com,03-41428421,101.7439756,3.199108
250,KLINIK NADIA,"NO 5A, GROUND FLOOR, WISMA LEOPADJALAN TUN SAMBANTHABRICKFIELDS50470WILAYAH PERSEKUTUAN KUALA LUMPUR",kavitha@nadiapharmacy.com.my,01112171080,101.6908876,3.1314607
251,KLINIK NASON TAN,NO 2A-1 LEVEL 1 WISMA MENJALARA JALAN 7A/62ABANDAR MANJALARAKUALA LUMPUR52200WILAYAH PERSEKUTUAN KUALA LUMPUR,kliniknasontan@gmail.com,03-62618028,101.7633385,3.212792
252,KLINIK NATHAN DAN RAKAN RAKAN,NO.JLN BANGSARKUALA LUMPUR59200WILAYAH PERSEKUTUAN KUALA LUMPUR,kliniknathan@gmail.com,03-22825767,101.7145639,3.1763663
253,KLINIK NEGARA,"NO. 68, JALAN PUTRAKUALA LUMPUR50350WILAYAH PERSEKUTUAN KUALA LUMPUR",drasgill@yahoo.com,03-40410700,101.6952352,3.1669395
254,KLINIK NEUMEDIK - MENARA BINJAI,"UNIT 5.02, LEVEL 5NO. 2, JALAN BINJAIKUALA LUMPUR50450WILAYAH PERSEKUTUAN KUALA LUMPUR",klinikneumedikbinjai@gmail.com,0327137399,101.7186322,3.158855
255,KLINIK NEUMEDIK SIGNATURE,"UNIT 1.01A, LEVEL 1, MERCU 2,NO.3 JALAN BANGSAR, KL ECOCITYKUALA LUMPUR59200WILAYAH PERSEKUTUAN KUALA LUMPUR",cheis.neuhealth@gmail.com,0322022632,101.6803265,3.1293269
256,KLINIK NG DAN LEE,462 & 464 JALAN PUDUKUALA LUMPUR55100WILAYAH PERSEKUTUAN KUALA LUMPUR,nlpu@qualitas.com.my,03-92225989,101.7131987,3.1345766
257,KLINIK NG DAN LEE,"25 JLN METRO PERDANA BARAT 1,TAMAN USAHAWAN KEPONGKUALA LUMPUR52100WILAYAH PERSEKUTUAN KUALA LUMPUR",nlke@qualitas.com.my,03-62571436,101.6408002,3.2149052
258,KLINIK NG DAN LEE,"377, BATU 4, JALAN AMPANGKUALA LUMPUR50450WILAYAH PERSEKUTUAN KUALA LUMPUR",nlap@qualitas.com.my,03-42560764,101.7147524,3.1590332
259,KLINIK NG DAN LEE,NO 265 JALAN MAHKOTA TAMAN MALURICHERAS55100WILAYAH PERSEKUTUAN KUALA LUMPUR,nlml@qualitas.com.my,03-92852820,101.7316715,3.1296657
260,KLINIK NG DAN SINGH,"35, JALAN 1/27B, DESA SETAPAKKUALA LUMPUR53300WILAYAH PERSEKUTUAN KUALA LUMPUR",ngdansingh_ds@yahoo.com.my,03-41499333,101.7335843,3.2063185
261,KLINIK NUMEDIK,"LG 3-3A, NU RETAIL TOWERNU TOWER 2KUALA LUMPUR50470WILAYAH PERSEKUTUAN KUALA LUMPUR",kliniknumedik@gmail.com,03-27427982,101.6696511,3.234839
262,KLINIK NUR'AINA,"12-0-3,JALAN 27/56,KERAMAT WANGSAKUALA LUMPUR54200WILAYAH PERSEKUTUAN KUALA LUMPUR",dzuraina@streamyx.com,03-42601717,101.7483191,3.1810646
263,KLINIK ONG YONG DAN RAKAN-RAKAN,"NO 11, JALAN AMBONG 1KEPONG BARUKUALA LUMPUR52100WILAYAH PERSEKUTUAN KUALA LUMPUR",drpatrickyong@gmail.com,03-62580328,101.6463942,3.2106732
264,KLINIK ONG YONG DAN RAKAN-RAKAN,"3495, GARDEN STREETJINJANG NORTHKUALA LUMPUR52100WILAYAH PERSEKUTUAN KUALA LUMPUR",drpatrickyong@live.com,03-62578460,101.6328435,3.2162129
265,KLINIK PAKAR DR NORMALINA,NO 99 ARAS BAWAH JALAN DWITASIK 1DATARAN DWITASIK BANDAR SRI PERMAISURICHERAS56000WILAYAH PERSEKUTUAN KUALA LUMPUR,kp_drnormalina@yahoo.com,019-2888773,101.6104999,3.1925945
266,KLINIK PAKAR PAKAR PERUBATAN P & R SDN. BHD.,"118, JALAN IPOHKUALA LUMPUR51200WILAYAH PERSEKUTUAN KUALA LUMPUR",Ravmenon59@unifi.my,03-40451235,101.6714661,3.2029795
267,KLINIK PAKAR WANITA CONNAUGHT,"128,JALAN CERDAS, TAMAN CONNAUGHT,CHERASKUALA LUMPUR56000WILAYAH PERSEKUTUAN KUALA LUMPUR",asokan@hotmail.co.uk,03-91019160,101.7349325,3.0813898
268,KLINIK PAMBAN SWAMIGAL,NO 69 JALAN 3/76D DESAPANDANKUALA LUMPUR55100WILAYAH PERSEKUTUAN KUALA LUMPUR,klinikpambanswamigal@gmail.com,03-92811410,101.7390844,3.14708
269,KLINIK PANDAN INDAH,"M5A-12 JLN PANDAN INDAH , 55100 PANDAN INDAK  KUALA LUMPURKUALA LUMPUR55100WILAYAH PERSEKUTUAN KUALA LUMPUR",kkmlee007@hotmail.com,03-42940388,101.7697354,3.1340766
270,KLINIK PEARL CITY,"NO.33, GROUND FLOOR, JALAN 16/155CBUKIT JALIL57000WILAYAH PERSEKUTUAN KUALA LUMPUR",pearlcityclinic@gmail.com,0389994767,101.6752036,3.0549297
271,KLINIK PEMBANGUNAN,"TINGKAT 1, QUILL 9, 112,JALAN SEMANGAT, SEKSYEN 14,KUALA LUMPUR46100WILAYAH PERSEKUTUAN KUALA LUMPUR",drsyed@asp-medical-clinic.com,03-79322988,101.6328662,3.1133918
272,KLINIK PEMBANGUNAN,"TINGKAT 3, MENARA SME BANK,JALAN SULTAN ISMAILKUALA LUMPUR50250WILAYAH PERSEKUTUAN KUALA LUMPUR",drsyuhadah@klinikpembangunan.com,03-26939688,101.7010919,3.1582896
273,KLINIK PEMBANGUNAN,"BURSA MALAYSIA BERHAD,EXCHANGE SQUARE, BUKIT KEWANGANKUALA LUMPUR50250WILAYAH PERSEKUTUAN KUALA LUMPUR",MARINAH@asp-medical-clinic.com,03-20701198,101.7014032,3.1482515
274,KLINIK PEMBANGUNAN SDN BHD,"LOT 5.03A, WISMA HONG LEONGNO.18, JALAN PERAKKUALA LUMPUR50450WILAYAH PERSEKUTUAN KUALA LUMPUR",drgong@klinikpembangunan.com,03-21812677,101.7094982,3.1542337
275,KLINIK PEMBANGUNAN SDN BHD,"RETAIL 2.3 MENARA FELDA PLATINUM PARK, NO 11 PERSIARAN KLCCKUALA LUMPUR50088WILAYAH PERSEKUTUAN KUALA LUMPUR",drnazif@klinikpembangunan.com,03-21816889,101.7186283,3.15556
276,KLINIK PEMBANGUNAN SDN BHD,"LOT 5&6, LEVEL 3A MENARA HONG LEONG NO 6, JALANDAMANSARALELA, BUKIT DAMANSARABUKIT DAMANSARA50490WILAYAH PERSEKUTUAN KUALA LUMPUR",drkelly@pluxhealth.com,0320115959,101.6643383,3.1459791
277,KLINIK PEMBANGUNAN SDN BHD,"TINGKAT 15, MENARA BANK ISLAM22, JALAN PERAKKUALA LUMPUR50450WILAYAH PERSEKUTUAN KUALA LUMPUR",drsyuhadah@aspmedic.com,0321815488,101.7106601,3.1531639
278,KLINIK PEMBANGUNAN SDN.BHD.,"UNIT 13.2, 13TH FLOOR, WISMA LEE RUBBERNO.1, JALAN MELAKAKUALA LUMPUR50100WILAYAH PERSEKUTUAN KUALA LUMPUR",DrKelly@KlinikPembangunan.com,03-20700788,101.6970536,3.1496669
279,KLINIK PEMBANGUNAN WISMA BANK SIMPANAN NASIONAL,"TINGKAT 3, BLOK A, WISMA BANK SIMPANAN NASIONAL,117, JALAN AMPANG,KUALA LUMPUR50450WILAYAH PERSEKUTUAN KUALA LUMPUR",drsuresh@pluxhealth.com,0321711899,101.7089953,3.1583722
280,KLINIK PERDANA,NO 60-00-06 RUMAH PANGSA SRI SABAHJALAN IKAN AYUCHERAS56100WILAYAH PERSEKUTUAN KUALA LUMPUR,kperdanacheras@yahoo.com,03-92843289,101.7267794,3.1159586
281,KLINIK PERDANA DR YUSLINA,"NO 25G,JALAN TASIK UTAMA 4MEDAN NIAGA TASIK DAMAISUNGAI BESI57000WILAYAH PERSEKUTUAN KUALA LUMPUR",yuslina_idris@yahoo.com,03-90543851,108.2201941,-7.3280255
282,KLINIK PERMAI,2-1-6 PANGSAPURI PERMAIJALAN LANDAI PERMAISUNGAI BESI57100WILAYAH PERSEKUTUAN KUALA LUMPUR,klinikpermaisgbesi@gmail.com,0104009556,101.705314,3.0641366
283,KLINIK PERTAMA,16 JLN SUASA 4 SG BESIKUALA LUMPUR57000WILAYAH PERSEKUTUAN KUALA LUMPUR,pertamabesi@yahoo.com.sg,03-90585923,101.7100292,3.0629554
284,KLINIK PERTAMA,"NO 20, JALAN 1A/27A,SECTION 1WANGSA MAJU53300WILAYAH PERSEKUTUAN KUALA LUMPUR",klinikone@gmail.com,0164176105,101.7322174,3.2012744
285,KLINIK PERTAMA,"NO. 0-25,GF PV12, PLATINUM LAKE CONDOMINIUMNO. 6 JALAN LANGKAWI TAMAN DANAU KOTASETAPAK53300WILAYAH PERSEKUTUAN KUALA LUMPUR",drhida@yahoo.com,03-41316105,101.7181603,3.2072664
286,KLINIK PERTAMA,"2-11, TINGKAT 2, PERTAMA KOMPLEKS,JALAN TUANKU ABDUL RAHMANKUALA LUMPUR50100WILAYAH PERSEKUTUAN KUALA LUMPUR",klinik_pertama@yahoo.com,03-26948830,101.6955726,3.1572891
287,KLINIK PERTAMA,NO 2.07 MEDAN MARAJALAN RAJA LAUTKUALA LUMPUR50350WILAYAH PERSEKUTUAN KUALA LUMPUR,smshealthcare786@gmail.com,03-26988830,101.6956965,3.1623577
288,KLINIK PERUBATAN AMPANG PUTRA,NO 2 JALAN EXCELLATAMAN  AMPANG HILIRKUALA LUMPUR55100WILAYAH PERSEKUTUAN KUALA LUMPUR,klinikperubatan.ampangputra@gmail.com,03-42878257,101.7481345,3.1506332
289,KLINIK PERUBATAN BOREN,"45E-1, TINGKAT 1,BANGUNAN BANGSARIA, JALAN MAAROFBANGSAR BARU59000WILAYAH PERSEKUTUAN KUALA LUMPUR",aidil@boren.com.my,0322017997,101.6750321,3.12814
290,KLINIK PERUBATAN MALAYA,"NO. 40 , LEBOH AMPANG ,KUALA LUMPURKUALA LUMPUR50100WILAYAH PERSEKUTUAN KUALA LUMPUR",klinikmalaya@gmail.com,0320224456,101.697723,3.1495014
291,KLINIK PERUBATAN SURYA,"NO 6,PLAZA USAHAWAN GENTING KLANG,JALAN DANAU NIAGA 1,TAMAN DANAU KOTAKUALA LUMPUR53300WILAYAH PERSEKUTUAN KUALA LUMPUR",surya_medclinic@yahoo.com,03-41314788,101.7177432,3.2016719
292,KLINIK PLAZA,"LOT DG1 BLOK D,PLAZA PEKELILING JALAN TUN RAZAKSENTUL50400WILAYAH PERSEKUTUAN KUALA LUMPUR",klinikplaza@gmail.com,03.40429585,101.7090311,3.1694855
293,KLINIK PRASAD,"NO.36, JALAN 2/17, TAMAN FADASONOFF JALAN KEPONGKUALA LUMPUR52000WILAYAH PERSEKUTUAN KUALA LUMPUR",klinikprasad@gmail.com,03-62433331,101.6529682,3.213482
294,KLINIK PRIME CARE,"BLOCK E-1-4 MEGAN AVENUE 1189,JALAN TUN RAZAKKUALA LUMPUR50400WILAYAH PERSEKUTUAN KUALA LUMPUR",mariaxavier_66@yahoo.com,03-21660760,101.6888071,3.1339746
295,KLINIK PRIMECARE,11 PERSIARAN ARA KIRI LUCKY GARDENBANGSARKUALA LUMPUR59100WILAYAH PERSEKUTUAN KUALA LUMPUR,drselva@klinikprimecare.com,03-20944142,101.6702078,3.1281366
296,KLINIK PUSRAWI JALAN IPOH,NO.132-138 WISMA BAITULMALJALAN IPOHKUALA LUMPUR51200WILAYAH PERSEKUTUAN KUALA LUMPUR,noriaakat.mhc@gmail.com,03-40400425,101.6939599,3.17022
297,KLINIK PUSRAWI MENARA FELDA,"LOWER GROUND B1, MENARA FELDAPERSIARAN KLCCKUALA LUMPUR50088WILAYAH PERSEKUTUAN KUALA LUMPUR",kaf.mhc@gmail.com,03-21811677,101.7335783,3.1651186
298,KLINIK PUSRAWI TAMAN PERMATA,"LOT 2763A, JALAN CHANGKAT PERMATATAMAN PERMATA ULU KLANGULU KLANG53300WILAYAH PERSEKUTUAN KUALA LUMPUR",ktp.mhc@gmail.com,03-41615782,101.7508026,3.2072167
299,KLINIK PUTRIJAYA,"NO19G,JALAN DWITASIK 1,DATARAN DWITASIK,BANDAR SRI PERMAISURICHERAS56000WILAYAH PERSEKUTUAN KUALA LUMPUR",mimiputrijaya@gmail.com,0391710170,101.7128348,3.0989391
300,KLINIK PUTRIMEDIK,B-0-10 VIVA RESIDENCYJALAN SUPPIAH PILLAYKUALA LUMPUR51200WILAYAH PERSEKUTUAN KUALA LUMPUR,info@putrimedik.my,0163024840,101.6852151,3.1779701
301,KLINIK RAHMAN,NO 5 JALAN BELANGKASOFF JALAN KG PANDANKUALA LUMPUR55100WILAYAH PERSEKUTUAN KUALA LUMPUR,drbrgp@yahoo.com,03-92859124,101.7348329,3.1430334
302,KLINIK RAJ & RAKAN-RAKAN,778 JALAN SENTULJALAN SENTULKUALA LUMPUR51000WILAYAH PERSEKUTUAN KUALA LUMPUR,Vythiraj@gmail.com,03-40421252,101.6923501,3.181351
303,KLINIK RAJ DAN RAKAN-RAKAN,"NO 191, JALAN SEGAMBUT,KUALA LUMPUR51200WILAYAH PERSEKUTUAN KUALA LUMPUR",klinikrajrakan2@gmail.com,03-62584481,101.6769071,3.1826564
304,KLINIK RAJA,"28, JALAN DAYA 7, TAMAN DAYA,KEPONG52100WILAYAH PERSEKUTUAN KUALA LUMPUR",drchandra2020@yahoo.com,03-62759787,101.6375856,3.2226202
305,KLINIK RAKAN MEDIK,"43, JALAN SUASA 5SUNGAI BESIKUALA LUMPUR57000WILAYAH PERSEKUTUAN KUALA LUMPUR",klinikrakanmedik@gmail.com,0395439687,101.7110495,3.064018
306,KLINIK RAKYAT,"LOT 17,JALAN BESAR,KEPONGKUALA LUMPUR52100WILAYAH PERSEKUTUAN KUALA LUMPUR",chew_thoo_seng@hotmail.com,03-62740690,101.6369542,3.2146035
307,KLINIK RAKYAT (KEPONG BARU),"41 JALAN AMBONG DUA,KEPONG BARUKUALA LUMPUR52100WILAYAH PERSEKUTUAN KUALA LUMPUR",krakyatkb@gmail.com,03-62579839,101.6428,3.2074736
308,KLINIK RAMABAI DAN SURGERI SDN BHD,NO.14 JALAN BURUNG TIONGTAMAN BUKIT MALURIKEPONG52100WILAYAH PERSEKUTUAN KUALA LUMPUR,krdssb@gmail.com,03-62746321,101.6326305,3.2009887
309,KLINIK RAPHA GOODWILL,"147, JALAN SULTAN ABDUL SAMAD, BRICKFIELDSKUALA LUMPUR50470WILAYAH PERSEKUTUAN KUALA LUMPUR",ritaponnammal@yahoo.com,03-22747249,101.6903493,3.1329324
310,KLINIK RAWATAN DR MAHMUD PANDAN,G-15 JALAN PANDAN PRIMA 2DATARAN PANDAN PRIMAAMPANG55100WILAYAH PERSEKUTUAN KUALA LUMPUR,krdmpandan@yahoo.com,03-92824652,101.7414158,3.1418613
311,KLINIK REDDY SETAPAK,"440, JALAN PAHANG, SETAPAK,KUALA LUMPUR53000WILAYAH PERSEKUTUAN KUALA LUMPUR",systab@streamyx.com,03-40234354,101.704438,3.1888635
312,KLINIK ROSH,"NO.117,GROUND FLOOR,JALAN SIBU,TAMAN WAHYU,OFF JALAN IPOH,KUALA LUMPUR68100WILAYAH PERSEKUTUAN KUALA LUMPUR",klinikrosh@gmail.com,0362423058,101.6697424,3.2133379
313,KLINIK SALAK SOUTH,A68 SALAK SOUTH GARDENK. L.57100WILAYAH PERSEKUTUAN KUALA LUMPUR,hinganlee@yahoo.com,03-79831235,101.6962898,3.082905
314,KLINIK SANNASEES,"NO.36, JALAN PADANG BELIABRICKFIELDS50470WILAYAH PERSEKUTUAN KUALA LUMPUR",dalip.singh.kl@hotmail.com,03-22741496,101.7130177,3.1451656
315,KLINIK SARAYA DAN SURGERI,25 JLN BUNGA TANJUNG18. TAMAN SARAYACHERAS56100WILAYAH PERSEKUTUAN KUALA LUMPUR,maanhs@gmail.com,03-42911550,101.7607485,3.1149691
316,KLINIK SEGARA,"LOT 2.9, PODIUM LEVEL 2, TOWER 1, ETIQA TWINS, NO 11, JALAN PINANG,KUALA LUMPURKUALA LUMPUR50450WILAYAH PERSEKUTUAN KUALA LUMPUR",kliniksegaramni@yahoo.com,03-21626022,101.7107881,3.1541805
317,KLINIK SEGARA,"NO. 10, JALAN 27/70A, DESA SRI HARTAMASKUALA LUMPUR50480WILAYAH PERSEKUTUAN KUALA LUMPUR",ksegara.dsh@gmail.com,03-23000400,101.6490888,3.1620406
318,KLINIK SEGARA,"LOT 306, LEVEL 3, 348, JALAN TUN RAZAKKUALA LUMPUR50400WILAYAH PERSEKUTUAN KUALA LUMPUR",kliniksegara@yahoo.com.my,03-21632140,101.7201739,3.1618017
319,KLINIK SEGARA,"LOT 2&3, MERCU UEM, JLN STESEN SENTRAL 5,KUALA LUMPUR50470WILAYAH PERSEKUTUAN KUALA LUMPUR",segarasentral@yahoo.com,03-22722578,101.6835231,3.1325405
320,KLINIK SEGARA,"UNIT B-08-06, BLOK 8, PLAZA MOUNT KIARA,NO. 2 JALAN BUKIT KIARA,KUALA LUMPUR50480WILAYAH PERSEKUTUAN KUALA LUMPUR",ksegara.mk@gmail.com,03-64118007,20.4093373,44.8320295
321,KLINIK SELINA,"NO 74,JALAN SENTUL PASAR,SENTULSENTUL51000WILAYAH PERSEKUTUAN KUALA LUMPUR",klinikselina@yahoo.com,0340413000,101.6913958,3.1896583
322,KLINIK SELVA,"NO.95A, JALAN SEPADU, UNITED GARDEN, 58200 KUALA LUMPUR.KUALA LUMPUR58200WILAYAH PERSEKUTUAN KUALA LUMPUR",yaasvani89@gmail.com,03-79831680,101.6753481,3.0830977
323,KLINIK SEMARAK,"23, JALAN RAJA MUDA, KG BARU,KUALA LUMPUR50300WILAYAH PERSEKUTUAN KUALA LUMPUR",jastur47@hotmail.com,0326930140,101.699978,3.1675373
324,KLINIK SENAN,"180A,BATU 2 JALAN IPOH (BEHAIND DYNASTY HOTEL)KUALA LUMPUR51200WILAYAH PERSEKUTUAN KUALA LUMPUR",drknowall@unifi.my,03-40412441,101.6805573,3.1890173
325,KLINIK SENTRAL,"NO: 22 JALAN RADIN ANUM,SERI PETALINGKUALA LUMPUR57000WILAYAH PERSEKUTUAN KUALA LUMPUR",kliniksentral1@yahoo.com,03-90577884,101.6901367,3.0675495
326,KLINIK SENTUL,"342 BATU 2 1/2, JALAN IPOHKUALA LUMPUR51200WILAYAH PERSEKUTUAN KUALA LUMPUR",klinik.sentul@gmail.com,03-40416164,101.6751607,3.2043051
327,KLINIK SETAPAK DAN SURGERI,"16 JALAN 46/26, TAMAN SRI RAMPAISETAPAKKUALA LUMPUR53300WILAYAH PERSEKUTUAN KUALA LUMPUR",ksrampai@unifi.my,03-40221525,101.7321091,3.196019
328,KLINIK SETAPAK DAN SURGERI,"19 JLN PRIMA SETAPAK 5, OFF JLN GENTING KLANGSETAPAKKUALA LUMPUR53300WILAYAH PERSEKUTUAN KUALA LUMPUR",kliniksetapakprima@gmail.com,0340217227,101.7122887,3.1965836
329,KLINIK SETAPAK DAN SURGERI,"39 JALAN 1/27B,TAMAN DESA SETAPAKKUALA LUMPUR53300WILAYAH PERSEKUTUAN KUALA LUMPUR",ssellam50@gmail.com,03-41497945,101.73414,3.2068626
330,KLINIK SETAPAK DAN SURGERI,179 JLN GENTING KLANGSETAPAKKUALA LUMPUR53300WILAYAH PERSEKUTUAN KUALA LUMPUR,sharanssb@hotmail.com,03-40251799,101.7116083,3.1942927
331,KLINIK SETIA,"33, JALAN 11A/133SRI SENTOSAKUALA LUMPUR58000WILAYAH PERSEKUTUAN KUALA LUMPUR",drratha@streamyx.com,03-77841597,101.6631404,3.0814001
332,KLINIK SHAFI,108 JLN MIRI TMN BERINGIN JINJANG UTARAKUALA LUMPUR52000WILAYAH PERSEKUTUAN KUALA LUMPUR,klinikshafi@yahoo.com,0126661424,101.665774,3.220914
333,KLINIK SHAFI,"NO.485 JALAN JAMBU AIR MAWAR, JINJANG SELATANKUALA LUMPUR52000WILAYAH PERSEKUTUAN KUALA LUMPUR",mohdrafik50@yahoo.com,03-62576494,101.6623132,3.206926
334,KLINIK SHANTI,"NO6,JALAN 53,DESA JAYA,KEPONG,SELANGORKEPONG52100WILAYAH PERSEKUTUAN KUALA LUMPUR",drasid6@gmail.com,03-62744025,101.6315819,3.2138667
335,KLINIK SHARANI,"NO 20,JALAN BANGSAR UTAMA 1,BANGSAR UTAMABANGSAR59000WILAYAH PERSEKUTUAN KUALA LUMPUR",kliniksharani@yahoo.com,03-22873103,101.6777001,3.1278793
336,KLINIK SHARON,151-0-2 WISMA MUTIARA PUCHONGBT 61/4 JLN PUCHONGKUALA LUMPUR58200WILAYAH PERSEKUTUAN KUALA LUMPUR,kliniksharon02@aim.com,03-77820300,101.6583243,3.071197
337,KLINIK SINAR CERIA,G-18 MAXIM CITYLIGHTS SENTULNO.25 JALAN SENTUL PERDANASENTUL51000WILAYAH PERSEKUTUAN KUALA LUMPUR,kliniksinarceria@gmail.com,0340312500,101.6923665,3.1811942
338,KLINIK SRI,"B1-7 PLAZA DWITASIK, JALAN SRI PERMAISURIBANDAR SRI PERMAISURICHERAS56000WILAYAH PERSEKUTUAN KUALA LUMPUR",drsri@kliniksri.com.my,0328560842,101.7128453,3.0991333
339,KLINIK SRI INTAN,"303, JALAN PUDUPUDU55100WILAYAH PERSEKUTUAN KUALA LUMPUR",kliniksriintanpudu@gmail.com,0392226413,101.7119401,3.13596
340,KLINIK SRI PERMAISURI,"B1-12,PLAZA DWITASIK,OFF JALAN TASIKPERMAISURI 1,BANDAR SRI PERMAISURI,CHERAS56000WILAYAH PERSEKUTUAN KUALA LUMPUR",kliniksripermaisuri@yahoo.com,03-91713481,101.7133898,3.1017609
341,KLINIK SRI SENTOSA,"NO. 9, JALAN SRI SENTOSA 8A/133,TAMAN SRI SENTOSAKUALA LUMPUR58000WILAYAH PERSEKUTUAN KUALA LUMPUR",kliniksrisentosa@gmail.com,0377841795,101.6530088,3.0724725
342,KLINIK SURIA,"D-0-3, PUTRA MAJESTIK, JALAN KASIPILLAY,2 1/2 MILES OFF JALAN IPOJKUALA LUMPUR51200WILAYAH PERSEKUTUAN KUALA LUMPUR",markmureli@yahoo.com,03-40414667,101.684888,3.1757818
343,KLINIK T.A.R,"NO.329, JALAN TUANKU ABDUL RAHMANKUALA LUMPUR50100WILAYAH PERSEKUTUAN KUALA LUMPUR",ktar329@yahoo.com,03-26988122,101.6973642,3.1603753
344,KLINIK TAMAN TUN DR ISMAIL,NO 38 JALAN TUN MOHD FUAD TAMAN TUN DR ISMAILWILAYAH PERSEKUTUAN60000WILAYAH PERSEKUTUAN KUALA LUMPUR,hammidah@gmail.com,0377294096,101.6293123,3.1401094
345,KLINIK TAN & LEE (POLIKLINIK KUMPULAN CITY),"NO 11-G, JALAN 5/116B, KUCHAI ENTREPRENEURS' PARK,JALAN KUCHAI LAMA,KUALA LUMPUR58200WILAYAH PERSEKUTUAN KUALA LUMPUR",kliniktanlee@gmail.com,0379838299,101.6926564,3.088846
346,KLINIK TAN & MANO,"S4 RECREATION CENTRE,TECHNOLOGY PARK MALAYSIA BUKIT JALILKUALA LUMPUR57000WILAYAH PERSEKUTUAN KUALA LUMPUR",ktmano_tpm@yahoo.com,03-89964966,101.6889635,3.0480021
347,KLINIK TAN & MANO,"LG01D, LOWER GRD FLOOR, MENARA EON,288 JALAN RAJA LAUTKUALA LUMPUR50350WILAYAH PERSEKUTUAN KUALA LUMPUR",ktmano_cc@yahoo.com,03-26943195,101.6959623,3.1625295
348,KLINIK TAN & MANO,"S01, 2ND FLOOR, MAJU JUNCTION MALL,1001 JALAN SULTAN ISMAILKUALA LUMPUR50250WILAYAH PERSEKUTUAN KUALA LUMPUR",ktmano_mj@yahoo.com,03-26920428,101.6960646,3.1591052
349,KLINIK TAN & MANO,"13TH FLOOR PLAZA OSK,JALAN AMPANGKUALA LUMPUR50450WILAYAH PERSEKUTUAN KUALA LUMPUR",ktmanosk@yahoo.com,03-21662050,101.7169508,3.1610939
350,KLINIK TAN SEE KIN SDN BHD,"22, JALAN 1/1B , TAMAN INTAN BAIDURIKUALA LUMPUR52100WILAYAH PERSEKUTUAN KUALA LUMPUR",seekinnat@gmail.com,03-61366322,101.6709961,3.2477772
351,KLINIK TEH,"13, JALAN RAJA LAUT,(OPPOSITE FEDERAL CINEMA)KUALA LUMPUR50350WILAYAH PERSEKUTUAN KUALA LUMPUR",tehchengkim@gmail.com,03-40422032,101.6961107,3.1678064
352,KLINIK TEMPLER SDN SHD,"46,JLN MIDAH BESAR,TAMAN MIDAH.CHERASK.L.56000WILAYAH PERSEKUTUAN KUALA LUMPUR",baldane2000@yahoo.com,03-91313231,101.7326592,3.1013885
353,KLINIK TENAGA BARU,"NO. 12, JALAN SEMBILANG, TAMAN CHERASCHERAS56100WILAYAH PERSEKUTUAN KUALA LUMPUR",balaes57@yahoo.com.my,03-91714387,101.7257306,3.1139668
354,KLINIK TRUCARE,"G67 MAXIM CITYLIGHTS , JALAN SENTUL PASAR ,SENTUL51100WILAYAH PERSEKUTUAN KUALA LUMPUR",futuretrucare@yahoo.com,03-28575912,101.6905566,3.2079438
355,KLINIK TVS MEDICARE,"NO. 32, JALAN 3/23F, OFF JALAN LANGKAWI, TAMAN TERATAI MEWAH, SETAPAK,SETAPAK51100WILAYAH PERSEKUTUAN KUALA LUMPUR",tvsmedicare@gmail.com,03-40252920,101.7102826,3.2004999
356,KLINIK UNI-MED,"LOT 1.15, 1ST FLOOR, PLAZA BERJAYA,NO 12, JALAN IMBIKUALA LUMPUR55100WILAYAH PERSEKUTUAN KUALA LUMPUR",sstan@topfruits.com.my,03-21431093,101.713368,3.1446175
357,KLINIK UNIMED PLAZA DAMANSARA,"22G, JALAN MEDAN SETIA 2,PLAZA DAMANSARAKUALA LUMPUR50490WILAYAH PERSEKUTUAN KUALA LUMPUR",drjackwong@yahoo.com,03-20935928,101.6531107,3.1490295
358,KLINIK UNION MEDIC,"17G, JALAN 46A/26TAMAN SRI RAMPAI,SETAPAK53300WILAYAH PERSEKUTUAN KUALA LUMPUR",tomyldm@gmail.com,0341417217,101.7316198,3.1960391
359,KLINIK UNIQ,"A3-0-36, JALAN 1/152TAMAN OUG PARKLANEKUALA LUMPUR58200WILAYAH PERSEKUTUAN KUALA LUMPUR",klinikuniq@gmail.com,0377728698,101.6571684,3.0685964
360,KLINIK UTAMA,"144,JALAN BESAR,KEPONG52100WILAYAH PERSEKUTUAN KUALA LUMPUR",drkhaw@gmail.com,03-62740053,101.6377471,3.214287
361,KLINIK VICKY,"NO.18 JALAN 3/50C,TAMAN SETAPAK INDAH JAYA,JALAN GENTING KLANG,SETAPAKKUALA LUMPUR53300WILAYAH PERSEKUTUAN KUALA LUMPUR",clinicvicky@gmail.com,0340231200,101.7119462,3.1959075
362,KLINIK VIVIAN YAP & WAN,"NO 3, JALAN RADIN BAGUS 3, BANDAR BARU SRI PETALINGSRI PETALING57000WILAYAH PERSEKUTUAN KUALA LUMPUR",drvivianyap@gmail.com,010-2158831,101.6950655,3.0687541
363,KLINIK WANGSA,34G JALAN SETIAWANGSA 11ATAMAN SETIAWANGSASETIAWANGSA54200WILAYAH PERSEKUTUAN KUALA LUMPUR,klinikwangsa@yahoo.com,0340111015,101.7432381,3.178423
364,KLINIK WANGSA PERMAI,"10G,JALAN WANGSA 2/5TAMAN WANGSA PERMAIKUALA LUMPUR52200WILAYAH PERSEKUTUAN KUALA LUMPUR",shanil178@yahoo.com,03-62777364,101.7707577,3.1918512
365,KLINIK WARDA,"NO. 6, JALAN HILIR 1,TAMAN SRI ANGSANA HILIR, KG. PANDAN,KUALA LUMPUR55100WILAYAH PERSEKUTUAN KUALA LUMPUR",kwarda97@gmail.com,03-92871224,101.7440826,3.1470653
366,KLINIK WE-CARE,"NO. 4, JALAN 5/4CDESA MELAWATI, SETAPAKKUALA LUMPUR53100WILAYAH PERSEKUTUAN KUALA LUMPUR",kwecare@yahoo.com,03-41070176,101.7281799,3.2013542
367,KLINIK WE-CARE,"KLINIK WE CARENO 4, JALAN 5/4CKUALA LUMPUR53100WILAYAH PERSEKUTUAN KUALA LUMPUR",dohara2019@gmail.com,0341473000,101.7390881,3.218638
368,KLINIK WELLCARE DESA,"5-1 PUSAT PERDAGANGAN DESA JAYA, JALAN 16, TAMAN DESA JAYA,KEPONG52100WILAYAH PERSEKUTUAN KUALA LUMPUR",klinikwellcaredesa@gmail.com,03-67344557,101.6295866,3.2152849
369,KLINIK WISMA,"NO 163, 18-02, 18TH FLOOR, WISMA MCAKUALA LUMPUR50450WILAYAH PERSEKUTUAN KUALA LUMPUR",klinikwisma@yahoo.com,03-21717786,101.7166986,3.1598885
370,KLINIK WONG&SELVA,"22, JALAN 56, KEPONG BARUKUALA LUMPUR52100WILAYAH PERSEKUTUAN KUALA LUMPUR",krajalingam.kandasamy@gmail.com,03-62744493,101.6298751,3.2118933
371,KLINIK YAP & LOOI,"NO 29, JALAN KASKAS 2, TAMAN CHERAS 56100KUALA LUMPURKUALA LUMPUR56100WILAYAH PERSEKUTUAN KUALA LUMPUR",drmadhu311282@gmail.com,03-91313833,101.7416612,3.1008306
372,KLINIK YONG,"139, JALAN IMBIKUALA LUMPUR55100WILAYAH PERSEKUTUAN KUALA LUMPUR",klkyong309@gmail.com,03-21422035,101.7138174,3.1444747
373,KLINIK ZAMRUD,KLINIK ZAMRUD NO49 JALAN 46B/26 TAMAN SRI RAMPAIKUALA LUMPUR53300WILAYAH PERSEKUTUAN KUALA LUMPUR,drzamrudhashim@gmail.com,0341319347,101.7313189,3.196298
374,KLINIK ZARIF,"NO 1,LG 1,MENARA TM,JALAN PANTAI BAHARUKUALA LUMPUR50672WILAYAH PERSEKUTUAN KUALA LUMPUR",faridah_meor@yahoo.com,03-22411323,101.665866,3.1161294
375,KOH DISPENSARY,"SUITE 21.02A, LEVEL 21, MENARA CITIBANK,165, JALAN AMPANGKUALA LUMPUR50450WILAYAH PERSEKUTUAN KUALA LUMPUR",kdkl50450@yahoo.com,03-21626128,101.7172238,3.1599958
376,KUMPULAN MEDI-SYSTEMS SDN. BHD.,"514, 3 1/4 MILE, JALAN CHERAS, 56100WP KUALA LUMPURCHERAS56100WILAYAH PERSEKUTUAN KUALA LUMPUR",kumpulanmsystems@gmail.com,03-92848569,101.7398849,3.0925056
377,KUMPULAN MEDIC,"MEZZANINE FLOOR ,BANGUNAN KWSP,NO 5,JALAN RAJA LAUTKUALA LUMPUR50350WILAYAH PERSEKUTUAN KUALA LUMPUR",kwsp@qualitas.com.my,03-26921952,101.6949988,3.1538604
378,KUMPULAN MEDIC,"5TH FLOOR, WISMA BOUSTEAD71 JALAN RAJA CHULANKUALA LUMPUR50200WILAYAH PERSEKUTUAN KUALA LUMPUR",kmbo@qualitas.com.my,03-20224141,101.7087289,3.150176
379,KUMPULAN MEDIC,"GROUND FLOOR BANGUNAN GHEE HONG, 47 JALAN AMPANG, KUALA LUMPURWP KUALA LUMPUR50450WILAYAH PERSEKUTUAN KUALA LUMPUR",kmja@qualitas.com.my,03-20781532,101.6980301,3.15128
380,LA JUNG CLINIC,"LEVEL 4A-1, LEVEL 4A, SHOPPES AT FOUR SEASONS PLACE- KLNO 145, JALAN AMPANGKUALA LUMPUR50450WILAYAH PERSEKUTUAN KUALA LUMPUR",emily.khor@lajung.com.my,0328567616,101.7137285,3.158119
381,LAURENT BLEU CLINIC,"UCSI UNIVERSITY, NORTH WING CAMPUS, JALAN CHOO LIP KUNG,TAMAN TAYNTON VIEW, 56000 CHERAS, KUALA LUMPURKUALA LUMPUR56000WILAYAH PERSEKUTUAN KUALA LUMPUR",margaretflori@laurentbleu.com,03-91018880,101.736775,3.085258
382,MAHAMERU INTERNATIONAL MEDICAL  CENTRE,"107 & 109, JALAN MAAROF, 59000 BANGSARKUALA LUMPUR59000WILAYAH PERSEKUTUAN KUALA LUMPUR",inquire@heartscan.com.my,03-22870988,101.672775,3.134022
383,MEDI-KLINIK WONG ZUL & RAKAN-RAKAN,"63A JALAN DESA BAKTI, TAMAN DESAKUALA LUMPUR58100WILAYAH PERSEKUTUAN KUALA LUMPUR",mediklinik@yahoo.com,03-79805237,101.6830079,3.1034027
384,MEDIC CLINIC,"UNIT NO.1-8,LEVEL 1,PLAZA MENJALARA,NO 1,JALAN MENJALARA IDAMANBANDAR MENJALARA,KEPONG52200WILAYAH PERSEKUTUAN KUALA LUMPUR",medic.clinic18@gmail.com,03-62616609,101.6298211,3.1942268
385,MEDIC DAMANSARA,"32G, JALAN TANJUNG SD 13/1BANDAR SRI DAMANSARAKL52200WILAYAH PERSEKUTUAN KUALA LUMPUR",medicdamansara@hotmail.com,03-62802551,101.6056598,3.187123
386,MEDIVIRON PANTAI DALAM,"25 JALAN PANTAI MURNI 6, PANTAI DALAM,KUALA LUMPUR59200WILAYAH PERSEKUTUAN KUALA LUMPUR",mediviron_pantai@yahoo.com,03-22415678,101.6652161,3.1037359
387,MERIDIAN MEDICAL CLINIC,"SUITE 12-05,LEVEL 12,WISMA GOLDHILL,NO-67 JALAN RAJACHULANKUALA LUMPUR50200WILAYAH PERSEKUTUAN KUALA LUMPUR",meridiangoldhill@gmail.com,03-27131345,101.7083867,3.1502869
388,MILLENNIUM CLINIC KL,"LOT 3-22A, KL ECO CITY MALL, LEVEL 3BANGSARKUALA LUMPUR59200WILAYAH PERSEKUTUAN KUALA LUMPUR",hello@millenniumclinickl.com,0192033010,101.674188,3.1193536
389,O2 KLINIK,"NO.39 GROUND FLOOR, JALAN SERI BINTANG 2, TAMAN SRI BINTANG,KUALA LUMPUR52100WILAYAH PERSEKUTUAN KUALA LUMPUR",Infoseribintang@o2klinik.com,0166623345,101.6434753,3.1869863
390,O2 KLINIK MELAWATI,"NO. 270, JALAN BANDAR 12,TAMAN MELAWATI,MELAWATI53100WILAYAH PERSEKUTUAN KUALA LUMPUR",o2clinicmelawati@gmail.com,0102653345,101.7473249,3.2094502
391,O2 KLINIK SIGNATURE,"NO 2 ,JALAN TELAWI,BANGSAR BARUBANGSAR BARUKUALA LUMPUR59100WILAYAH PERSEKUTUAN KUALA LUMPUR",infobangsar@o2klinik.com,0328568794,101.6706747,3.132724
392,O2 KLINIK SIGNATURE DESA PARK,"E-G-9,PLAZA ARKADIA ,NO.3 JALAN INTISARI PERDANA,DESA PARKCITYWILAYAH PERSEKATUAN52200WILAYAH PERSEKUTUAN KUALA LUMPUR",infodesapark@o2klinik.com,0327327988,101.6350255,3.1857767
393,O2 KLINIK SRI PETALING,NO 8-G JALAN RADIN ANUM BANDAR BARU SRI PETALINGBANDAR BARU SRI PETALINGWILAYAH PERSEKUTUAN57000WILAYAH PERSEKUTUAN KUALA LUMPUR,infosripetaling@o2klinik.com,0390559595,101.6901385,3.0676491
394,PEARL'S CLINC OF CARE,"A-0-5, BLOK A, PLAZ DAMASNO. 60, JALAN SRI HARTAMAS 1KL50480WILAYAH PERSEKUTUAN KUALA LUMPUR",pearleong@gmail.com,0362032837,101.6568137,3.1640033
395,PERKASA,94 JALAN 4/91TAMAN SHAMELIN PERKASACHERAS56100WILAYAH PERSEKUTUAN KUALA LUMPUR,klinik_perkasa@ymail.com,03-9281154,101.7367941,3.1231753
396,PLUX HEALTH CLINIC,"LEVEL 1, MENARA MIDF,82, JALAN RAJA CHULAN,KUALA LUMPUR50200WILAYAH PERSEKUTUAN KUALA LUMPUR",drrifai@pluxhealth.com,0320222696,101.7081963,3.1507858
397,POKLINIK SEGAMBUT,201 JALAN SEGAMBUTKUALA LUMPUR51200WILAYAH PERSEKUTUAN KUALA LUMPUR,polikliniksegambut@gmail.com,03-62570066,101.676776,3.182713
398,POLIKLINIK & SURGERI KONG,"21, JALAN 13, DESA JAYA,KEPONG52100WILAYAH PERSEKUTUAN KUALA LUMPUR",klinik_kong@yahoo.com,03-62769759,101.6284229,3.2162356
399,POLIKLINIK AIMAN,"NO. 20,GROUND FLOOR ,FLAT PKNS 17 TINGKAT,JALAN KERINCI ,KG. KERINCIKUALA LUMPUR59200WILAYAH PERSEKUTUAN KUALA LUMPUR",poliklinikaiman@gmail.com,03 79577978,101.6629099,3.112261
400,POLIKLINIK AMALMEDIK,5439 JALAN J9TAMAN MELAWATIKUALA LUMPUR53100WILAYAH PERSEKUTUAN KUALA LUMPUR,drshafizclinic@gmail.com,0341012624,101.7543775,3.2126365
401,POLIKLINIK AN-NISA,"JALAN TASIK UTAMA 8,MEDAN NIAGA TASIK DAMAISUNGAI BESISUNGAI BESI57000WILAYAH PERSEKUTUAN KUALA LUMPUR",annisasungaibesi@gmail.com,0183658252,101.710077,3.0609757
402,POLIKLINIK AN-NISA' WAKAF CHE YEH,"SPEEDOC (M) SDN BHDL-2-1 (SUITE 3.11) PLAZA DAMAS, 60 JALAN SRI HARTAMAS 1KUALA LUMPUR50480WILAYAH PERSEKUTUAN KUALA LUMPUR",dr.dlymie@gmail.com,0142121821,101.6566886,3.1640775
403,POLIKLINIK ANAND DAN SURGERI,"47 & 47A,JALAN PERDANA 6/4,PANDAN PERDANA,WILAYAH PERSEKUTUAN55300WILAYAH PERSEKUTUAN KUALA LUMPUR",anandan.supra71@gmail.com,03-92870507,101.743515,3.113386
404,POLIKLINIK AVICENNA,"UNIT L3-23A, THIRD FLOOR TERMINAL BERSEPADU SELATANBANDAR TASIK SELATANKUALA LUMPUR57100WILAYAH PERSEKUTUAN KUALA LUMPUR",amgpav@gmail.com,014-5012107,101.7110798,3.0780526
405,POLIKLINIK BALJIT,"2-37A,JALAN DESA 1/1,DESA AMAN PURI,KEPONGKUALA LUMPUR52100WILAYAH PERSEKUTUAN KUALA LUMPUR",drbsc@tm.net.my,03-62773352,101.6156199,3.2109579
406,POLIKLINIK BANGSAR,"28, JALAN TELAWI BANGSAR BARUBANGSAR BARU59100WILAYAH PERSEKUTUAN KUALA LUMPUR",jsmanocha@gmail.com,03-22823753,101.6706635,3.1318113
407,POLIKLINIK CAHAYA,NO 17 JALAN PANDAN PERDANA4/5 PANDAN PERDANACHERAS55300WILAYAH PERSEKUTUAN KUALA LUMPUR,cahayaclinicperdana@yahoo.com,03-92001707,101.7697943,3.1340735
408,POLIKLINIK CAHAYA,"NO.74, JALAN PADANG BELIAOFF JALAN TUN SAMBANTHAN 4KUALA LUMPUR50470WILAYAH PERSEKUTUAN KUALA LUMPUR",poliklinikcahayabrickfields@yahoo.com.my,0322743810,101.6900639,3.1333743
409,POLIKLINIK CAHAYA PANDAN SDN BHD,"NO.15 JALAN 2/76C,DESA PANDANKUALA LUMPUR55100WILAYAH PERSEKUTUAN KUALA LUMPUR",adminpandan@cahayaclinics.com,0392829974,101.7373432,3.14701
410,POLIKLINIK CAHAYA SDN BHD,NO 45 JALAN 34/154TAMAN DELIMACHERAS56000WILAYAH PERSEKUTUAN KUALA LUMPUR,amy@cahayaclinics.com,03-91019894,101.7469471,3.0576016
411,POLIKLINIK CENTRAL,"RETAIL 3.A-0-2(B), GROUND FLOORBINTANG FAIRLANE RESIDENCE, NO.23, JALAN PADANG WALTER GRENIER,BUKIT BINTANG / JALAN IMBI AREA KUALA LUMPUR.55100WILAYAH PERSEKUTUAN KUALA LUMPUR",medicshan@yahoo.co.uk,03-21443204,101.7125673,3.1450878
412,POLIKLINIK CENTRAL & SURGERI SDN BHD,NO. 20 JALAN SURIA SETAPAKGOMBAKKUALA LUMPUR53000WILAYAH PERSEKUTUAN KUALA LUMPUR,nieza@qualitas.com.my,0340234390,101.702093,3.205346
413,POLIKLINIK CHANDRAN,"NO.25,JLN MANIS 4,TMN SEGAR,CHERAS56100WILAYAH PERSEKUTUAN KUALA LUMPUR",drchandran1955@gmail.com,03-91335955,101.7432066,3.088996
414,POLIKLINIK CONNAUGHT DAN SURGERI,NO 23 JALAN CERDAS SATUTAMAN CONNAUGHTKUALA LUMPUR56000WILAYAH PERSEKUTUAN KUALA LUMPUR,23polcontc@gmail.com,03-91015196,101.7384498,3.0815261
415,POLIKLINIK DAMAI,"B.01 (BASEMENT), JAKEL SQUARE, SIGNATURE BJALAN MUNSHI ABDULLAHKUALA LUMPUR50100WILAYAH PERSEKUTUAN KUALA LUMPUR",geethabde@drmanigroup.com,03-26023320,101.6995101,3.1537004
416,POLIKLINIK DAN PEMBEDAHAN BANDAR,12-A GROUND FLOOR ALPHA COMPLEX JALAN 1/47B 4TH MILE OFF JALAN IPOHKUALA LUMPURKUALA LUMPUR51200WILAYAH PERSEKUTUAN KUALA LUMPUR,drgernal@hotmail.com,03-62578845,101.6800301,3.1936021
417,POLIKLINIK DAN PEMBEDAHAN PETERS,45 JALAN CHOW KITKUALA LUMPUR50350WILAYAH PERSEKUTUAN KUALA LUMPUR,poliklinikpeters@gmail.com,0340428636,101.6966085,3.166622
418,POLIKLINIK DAN SURGERI KHOR,"9G,JALAN PANDAN INDAH 4/1, PANDAN INDAHPANDAN INDAH55100WILAYAH PERSEKUTUAN KUALA LUMPUR",ykkhor9090@gmail.com,0342977718,101.7441702,3.1316562
419,POLIKLINIK DAN SURGERI KOW & GOH,"SSG-9,SRI SAUJANA APT,JALAN WANGSA PERMAI,WANGSA PERMAI,KEPONGKEPONG52200WILAYAH PERSEKUTUAN KUALA LUMPUR",kochekow@hotmail.com,03-62773841,101.6105016,3.2100758
420,POLIKLINIK DAN SURGERI REN AI,"3-57A, GROUND FLOOR,JALAN DESA 2/1, DESA AMAN PURIKEPONG52100WILAYAH PERSEKUTUAN KUALA LUMPUR",klinikrenai@gmail.com,03-62775664,101.6160507,3.2105635
421,POLIKLINIK DAN SURGERI RIITWIKA,"69, OG BUSINESS PARK, JALAN TAMAN TAN YEW LAIKUALA LUMPUR58200WILAYAH PERSEKUTUAN KUALA LUMPUR",drsarves9580@gmail.com,03-77727482,101.662596,3.0736396
422,POLIKLINIK DAN SURGERI TIANG,"NO. 7G, JALAN PERDANA 4/3.PANDAN PERDANACHERAS55300WILAYAH PERSEKUTUAN KUALA LUMPUR",klbabe70@gmail.com,03-92008468,101.7425877,3.1200941
423,POLIKLINIK DESILVA,"NO.7,JALAN PERDANA 4/5,PANDAN PERDANACHERASKUALA LUMPUR55300WILAYAH PERSEKUTUAN KUALA LUMPUR",desilva24hrs@yahoo.com,03-92821721,101.7431754,3.1198627
424,POLIKLINIK DHALIWAL,"35, JALAN SELIMANG, TAMAN TENAGA, BATU 3 1/2, JALAN CHERAS,KUALA LUMPUR56000WILAYAH PERSEKUTUAN KUALA LUMPUR",POLIKLINIK.DHALIWAL@YAHOO.COM,03-91714789,101.7325636,3.1045269
425,POLIKLINIK DR AZHAR DAN RAKAN-RAKAN,"NO.4 BLOK P20-0-14, TAMAN BUKIT ANGKASAPANTAI DALAMWP59200WILAYAH PERSEKUTUAN KUALA LUMPUR",pdarp.dalam@gmail.com,0322820199,101.6688783,3.1095957
426,POLIKLINIK DR NORLIZA,"POLIKLINIK DR NORLIZA207,JALAN NEGARA 2,TAMAN MELAWATIKUALA LUMPUR53100WILAYAH PERSEKUTUAN KUALA LUMPUR",norliza63@yahoo.com,03-41064080,101.7498802,3.20888
427,POLIKLINIK DR.AZHAR DAN RAKAN-RAKAN,"NO.29, JALAN 46A/26,TAMAN SRI RAMPAISETAPAK53300WILAYAH PERSEKUTUAN KUALA LUMPUR",pdarsrirampai@yahoo.com,03-41424934,101.7314282,3.1957735
428,POLIKLINIK FAMILI MEDIC,"NO.542, JALAN RIANG 11,HAPPY GARDEN,OFF JALAN KUCHAI LAMAKUALA LUMPUR58200WILAYAH PERSEKUTUAN KUALA LUMPUR",drmsuresh@hotmail.com,03-79812345,101.6822801,3.08373
429,POLIKLINIK GOMEZ,"BLOCK A07/G, GARDEN CITY BUSINESS CENTRE, JALAN DAGANG UTAMATAMAN DAGANGAMPANG68000WILAYAH PERSEKUTUAN KUALA LUMPUR",pkgomez.ampang1@gmail.com,03-42703628,101.7564982,3.1462793
430,POLIKLINIK GOMEZ,"SUITE D1-18, TOWER D,GROUND FLOOR,WISMA PLAZA PANTAINO.5, JALAN 4/83A, OFF JALAN PANTAI BARUKUALA LUMPUR59200WILAYAH PERSEKUTUAN KUALA LUMPUR",pkgomez.wismaplazapantai@gmail.com,03-22828985,101.7127455,3.1385629
431,POLIKLINIK HAKIM,"NO 2A, JALAN KAMPUNG BATU MUDA TAMBAHAN 5KAMPUNG BATU MUDA TAMBAHAN,KUALA LUMPUR51100WILAYAH PERSEKUTUAN KUALA LUMPUR",poliklinikhakim@gmail.com,03 61782935,101.6751981,3.2030546
432,POLIKLINIK HARTAMAS,"44-GROUND FLOOR, JLN 27/70A, DESA SRI HARTAMASKUALA LUMPUR50480WILAYAH PERSEKUTUAN KUALA LUMPUR",poliklinikhartamas@yahoo.com.my,03-62063818,101.6770349,3.096512
433,POLIKLINIK KELUARGA,"NO 678, JALAN SENTULKUALA LUMPUR52200WILAYAH PERSEKUTUAN KUALA LUMPUR",poliklinikkeluarga@yahoo.com,0340513211,101.692811,3.1758327
434,POLIKLINIK KEPONG BARU,"54,JALAN AMBONG KIRI SATU,KEPONG BARUKL52100WILAYAH PERSEKUTUAN KUALA LUMPUR",pkkepong@hotmail.com,03-62521871,101.6461034,3.2092784
435,POLIKLINIK KONG,"297, JALAN TUN RAZAKPUDU50400WILAYAH PERSEKUTUAN KUALA LUMPUR",drkfkong@hotmail.com,03-92846813,101.7182596,3.1341627
436,POLIKLINIK KUMPULAN CITY,"24, JALAN AWAN HIJAU, TAMAN OUG, JALAN KLANG LAMA,KUALA LUMPUR58200WILAYAH PERSEKUTUAN KUALA LUMPUR",huatteo@gmail.com,03-79805482,101.6702078,3.0815432
437,POLIKLINIK KUMPULAN CITY,"13TH FLOOR,MENARA MULTI-PURPOSE,CAPITAL SQUARE,8,JALAN MUNSHI ABDULLAH,KUALA LUMPUR50100WILAYAH PERSEKUTUAN KUALA LUMPUR",l_lyee@yahoo.com,03-26985498,101.6993128,3.155157
438,POLIKLINIK KUMPULAN CITY,"20-4,JALAN PAHANG,KUALA LUMPUR53000WILAYAH PERSEKUTUAN KUALA LUMPUR",lly_pkchq@yahoo.com,03-40426622,101.698957,3.1733123
439,POLIKLINIK KUMPULAN CITY,"50-LG1-8, LOWER GROUND FLOOR,WISMA UOA DAMANSARA, JALAN DUNGUNDAMANSARA HEIGHTS50490WILAYAH PERSEKUTUAN KUALA LUMPUR",chicping@eyeoh.net,03-20945545,101.6660061,3.1517288
440,POLIKLINIK KUMPULAN CITY,"NO 26 GROUND FLOOR JALAN RADIN ANUM,BANDAR BARU SRI PETALING,SRI PETALING57000WILAYAH PERSEKUTUAN KUALA LUMPUR",pkcsripetaling@yahoo.com.my,03-90549662,101.6905052,3.0691716
441,POLIKLINIK KUMPULAN CITY (DR CHAI DAN RAKAN RAKAN),"NO. 11, PLAZA DANAU 2,JALAN 2/109F,TAMAN DANAU DESAKUALA LUMPUR58100WILAYAH PERSEKUTUAN KUALA LUMPUR",pkctdd@yahoo.com,03-79840828,101.6868057,3.1007377
442,POLIKLINIK KUMPULAN CITY (JALAN IPOH BATU 3),"467 ,BATU 3,JALAN IPOHKUALA LUMPUR51200WILAYAH PERSEKUTUAN KUALA LUMPUR",rishyaman@yahoo.com,03-40410582,101.6748615,3.2028147
443,POLIKLINIK LEAN,"301,JALAN TUN RAZAK,50400 WP KUALA LUMPURKUALA LUMPUR50400WILAYAH PERSEKUTUAN KUALA LUMPUR",ehlean@yahoo.com,0392843324,101.7190479,3.1626067
444,POLIKLINIK LEONG DAN HO,"36, JALAN CERDASCHERAS56000WILAYAH PERSEKUTUAN KUALA LUMPUR",hofuen@yahoo.com,03-91021108,101.7382694,3.0813718
445,POLIKLINIK LOO,"NO. A21, JALAN TUANKU SATUTAMAN SALAK SELATANKUALA LUMPUR57100WILAYAH PERSEKUTUAN KUALA LUMPUR",graciabaobei@yahoo.com,03-79827199,101.6961241,3.0837825
446,POLIKLINIK LOURDES,"BASEMENT ONE, RHB CENTREJALAN TUN RAZAKKUALA LUMPUR50400WILAYAH PERSEKUTUAN KUALA LUMPUR",rhbtr@lourdes.com.my,0321424064,101.7224224,3.1440574
447,POLIKLINIK LOURDES,"NO 22 , JALAN SULTAN ISMAILKUALA LUMPUR50250WILAYAH PERSEKUTUAN KUALA LUMPUR",mbf@lourdes.com.my,03-21440580,101.7092313,3.1533909
448,POLIKLINIK MAHANUM,143 JALAN AMINUDDIN BAKITAMAN TUN DR ISMAILKUALA LUMPUR60000WILAYAH PERSEKUTUAN KUALA LUMPUR,drmahanum@hotmail.com,03-77299328,101.6221474,3.1532055
449,POLIKLINIK MAHMOOD,"6-G, JALAN TASIK UTAMA 10, TAMAN TASIK DAMAISG. BESI, KUALA LUMPURSG. BESI57000WILAYAH PERSEKUTUAN KUALA LUMPUR",poliklinikmahmood@gmail.com,0374991307,101.7106275,3.0617268
450,POLIKLINIK MALLAL,"95-1, JALAN TRAVERSBRICKFIELDS50470WILAYAH PERSEKUTUAN KUALA LUMPUR",mallaldispensary@gmail.com,0322765553,101.68322,3.13064
451,POLIKLINIK MEDAN PUTRA,"NO. 51G, JALAN MEDAN PUTRA  1, MEDAN PUTRA BUSINESS CENTRE,BANDAR MENJALARAKEPONG52200WILAYAH PERSEKUTUAN KUALA LUMPUR",umadevilakkavalli@gmail.com,03 62624067,101.6256967,3.1919586
452,POLIKLINIK MEDICS,18-0-4 TAMAN ANGKASAPANTAI DALAMKL59200WILAYAH PERSEKUTUAN KUALA LUMPUR,sarbansandhu@gmail.com,60123036915,101.6341111,3.2096954
453,POLIKLINIK MEDIKULIT DAN SURGERI,"NO 89, JALAN METRO PERDANA BARAT 1, TAMAN USAHAWANKEPONG52100WILAYAH PERSEKUTUAN KUALA LUMPUR",medikulit@hotmail.com,03-62575762,101.638436,3.214588
454,POLIKLINIK MERANTI,18-1 JALAN MERANTI SD 13/5BANDAR SRI DAMANSARAKUALA LUMPUR52200WILAYAH PERSEKUTUAN KUALA LUMPUR,pkmeranti@hotmail.com,03-62803470,101.6025901,3.18686
455,POLIKLINIK MIHARJA,"23, JALAN 3/93, TAMAN MIHARJA,CHERASKL56000WILAYAH PERSEKUTUAN KUALA LUMPUR",randhay@hotmail.com,03-92815448,101.72331,3.1238107
456,POLIKLINIK MURU,241 JALANTUN SAMBANTHAN BRICKFIELDSKUALA LUMPUR50470WILAYAH PERSEKUTUAN KUALA LUMPUR,pkmuru@streamyx.com,03-22747251,101.6837501,3.1288029
457,POLIKLINIK NU SENTRAL,"LOT CC 29, CONCOURSE FLOOR, NU SENTRAL SHOPPING CENTREJALAN TUN SAMBANTHANKUALA LUMPUR50470WILAYAH PERSEKUTUAN KUALA LUMPUR",polinusentral@yahoo.com,03-28560706,101.6870347,3.1330712
458,POLIKLINIK PARKLANE,D3-0-32 NO1  JALAN 1/52 TAMAN OUG PARKLANEKUALA LUMPUR58200WILAYAH PERSEKUTUAN KUALA LUMPUR,poliklinikparklane@gmail.com,0377733861,101.6515576,3.0772327
459,POLIKLINIK PERDANA,D3-0-28 JALAN 1/152 TAMAN OUG PARKLANEKUALA LUMPUR58200WILAYAH PERSEKUTUAN KUALA LUMPUR,poliklinikperdana3028@gmail.com,0327339573,101.6591676,3.0679672
460,POLIKLINIK PERMATA,"2748 CHANGKAT PERMATA, TAMAN PERMATAULU KLANGKUALA LUMPUR53300WILAYAH PERSEKUTUAN KUALA LUMPUR",poliklinikpermata2748@gmail.com,03-41071788,101.7508669,3.2068758
461,POLIKLINIK PERMATA,"NO 7 JALAN AU 2A/17, TAMAN SRI KERAMATKUALA LUMPUR54200WILAYAH PERSEKUTUAN KUALA LUMPUR",dai_ism@yahoo.com,03-42565875,101.7510246,3.1717646
462,POLIKLINIK PERTAMA,"NO:61,JALAN 2/90,TAMAN PERTAMA,BATU 3 1/2,JALANCHERASKUALA LUMPUR56100WILAYAH PERSEKUTUAN KUALA LUMPUR",poliklinik_pertama@yahoo.com,03-92843793,101.7294651,3.113126
463,POLIKLINIK PERUBATAN (PUDURAYA),"44-D, JALAN PUDU, PUDURAYAWP KUALA LUMPUR55100WILAYAH PERSEKUTUAN KUALA LUMPUR",ckhor_86@yahoo.com,0122922948,101.701503,3.1459445
464,POLIKLINIK PRIMA,"2G, JALAN PRIMA 5, PUSAT NIAGA METRO PRIMA, KEPONGKUALA LUMPUR52100WILAYAH PERSEKUTUAN KUALA LUMPUR",poliklinikprima@yahoo.com,03-62509760,101.6405458,3.2129519
465,POLIKLINIK REN AI BUKIT MALURI,"23, JALAN BURUNG TIUNGTAMAN BUKI MALURIKEPONG52100WILAYAH PERSEKUTUAN KUALA LUMPUR",bmrenai@gmail.com,03-62747882,101.6321705,3.2010499
466,POLIKLINIK SENTRAL (PERUBATAN & XRAY),"UNIT NO 3, LEVEL 2, STESEN SENTRAL KLKUALA LUMPUR50470WILAYAH PERSEKUTUAN KUALA LUMPUR",psklsentral@gmail.com,03-22760808,101.6863978,3.1355713
467,POLIKLINIK SERI MAS,"1-0-1, GROUND FLOOR, AMBER TOWER, SERI MASCONDOMINIUM, JALAN 4/89A, BATU 3 1/2, OFF JALAN CHERAS,CHERAS56000WILAYAH PERSEKUTUAN KUALA LUMPUR",khalim43@yahoo.com,03-91736790,101.7259197,3.1068447
468,POLIKLINIK SHAIK,"LOT 5-1, TINGKAT 5, MENARA 2, MENARA KEMBAR BANK RAKYAT,NO.33, JALAN RAKYATBANGSAR50470WILAYAH PERSEKUTUAN KUALA LUMPUR",br.alshaikgroup@gmail.com,03-22760069,101.6827112,3.1302364
469,POLIKLINIK SINAR,"NO. 26, JALAN 8/38A, TAMAN SRI SINAR, SEGAMBUTKUALA LUMPUR51200WILAYAH PERSEKUTUAN KUALA LUMPUR",andrewyeef@gmail.com,03-62778336,101.6509915,3.1865772
470,POLIKLINIK SOO & TAN,"16, JALAN BURUNG PUCUNG,TAMAN BUKIT MALURIKEPONG52100WILAYAH PERSEKUTUAN KUALA LUMPUR",sootanpoliklinik@yahoo.com,03-62777430,101.6320212,3.2014667
471,POLIKLINIK SRI KUCHING,"9,BLOCK O, JALAN SELINGSING 3, TAMAN SRI KUCHING ,.K.L.51200WILAYAH PERSEKUTUAN KUALA LUMPUR",gohchingkuan@yahoo.com.sg,03-62500336,101.6744114,3.1976246
472,POLIKLINIK SRI PERMAI,"NO. 42, JALAN MEGAN SETAPAKTAMAN MEGANSRI RAMPAI53300WILAYAH PERSEKUTUAN KUALA LUMPUR",pspsrirampai@gmail.com,03-41438250,101.7296028,3.1949056
473,POLIKLINIK SRI PERMAI,"4TH FLOOR, MENARA OLYMPIAJALAN RAJA CHULANKUALA LUMPUR50250WILAYAH PERSEKUTUAN KUALA LUMPUR",klclinic.olympia@gmail.com,03-20321267,101.7005137,3.149338
474,POLIKLINIK SRI PERMAI,"NO. 5, JALAN 16KAMPUNG CHERAS BARUKUALA LUMPUR56100WILAYAH PERSEKUTUAN KUALA LUMPUR",psp_cheras@yahoo.com,03-42808546,101.7472986,3.105932
475,POLIKLINIK STAR,"G1,RESIDENSI SHAMELIN BINTANG, NO. 36A, JALAN 4/91KUALA LUMPUR56100WILAYAH PERSEKUTUAN KUALA LUMPUR",poliklinikstarshamelin@gmail.com,0142659756,101.7098806,3.1192099
476,POLIKLINIK SUHAIMI,"NO 88 JALAN 1/27F,PUSAT BANDAR WANGSA MAJUKUALA LUMPUR53300WILAYAH PERSEKUTUAN KUALA LUMPUR",selvan331@yahoo.com.my,03-41490530,101.7445541,3.1995246
477,POLIKLINIK SURJIT,NO 57 JALAN SATUKEPONG BARU52100WILAYAH PERSEKUTUAN KUALA LUMPUR,polikliniksurjit2013@gmail.com,03-62512975,101.6268445,3.2149264
478,POLIKLINIK T&C,"NO 30, GROUND FLOOR, JALAN 34/154TMN BKT ANGGERIK, OFF BATU 7, CHERASKUALA LUMPUR56000WILAYAH PERSEKUTUAN KUALA LUMPUR",politc@streamyx.com,03-91022920,101.7478556,3.057736
479,POLIKLINIK TAMAN CHERAS,"NO 10, JALAN CENGKIH, TAMAN CHERASKL56100WILAYAH PERSEKUTUAN KUALA LUMPUR",polikliniktamancheras@hotmail.com,03-91314127,101.7425454,3.1002501
480,POLIKLINIK WANITA & KELUARGA ROSHEN,"67, JALAN GENTING KLANGSETAPAK53300WILAYAH PERSEKUTUAN KUALA LUMPUR",manroshen@hotmail.com,03-40237799,101.7209812,3.2043551
481,POLIKLINIK WONG,"NO 211, JALAN SARJANA, TMN CONNAUGHT, CHERASKUALA LUMPUR56000WILAYAH PERSEKUTUAN KUALA LUMPUR",scweng75@yahoo.com,03-91317833,101.7343319,3.0824329
482,POLIKLINIK ZAZALI,"NO 257 ,JALAN BANDAR 12TAMAN MELAWATITAMAN MELAWATI53100WILAYAH PERSEKUTUAN KUALA LUMPUR",asnuranajwadk@yahoo.com,03-41077444,101.7477886,3.2098468
483,POLIKLINIKCHEN CHEN,"16, JALAN AWAN  HIJAU, TAMAN OVERSEAS UNION,5TH MILE JALAN KLANG LAMAKUALALUMPUR58200WILAYAH PERSEKUTUAN KUALA LUMPUR",starlord2004@yahoo.com,03-79833218,101.67021,3.0818
484,POLYKELINIK THAM & NG,327 JALAN PUDUKUALA LUMPUR55100WILAYAH PERSEKUTUAN KUALA LUMPUR,thamng327@gmail.com,03-92226140,101.7123998,3.13528
485,PREMIERE MEDICAL CLINIC,"LOT G-11,PLAZA MENJALARA,JALAN MENJALARA IDAMAN,BANDAR SRI MENJALARAKEPONG52200WILAYAH PERSEKUTUAN KUALA LUMPUR",premieremedicalclinic4@gmail.com,0362614717,101.6296419,3.194087
486,PRINZ MEDICAL CLINIC,A-1-1 ST MARY RESIDENCES TOWER AJALAN TENGAHKUALA LUMPUR50450WILAYAH PERSEKUTUAN KUALA LUMPUR,prinzmedicalclinic@gmail.com,0320223111,101.7082517,3.1518283
487,PURE TOUCH CLINIC,"UG-5, UPPER GROUND FLOOR, VERTICAL PODIUM,AVENUE 3, JALAN KERINCHIBANGSAR SOUTH59200WILAYAH PERSEKUTUAN KUALA LUMPUR",DrJed@klinikpembangunan.com,03-22420772,101.6677445,3.1110077
488,PUSAT PERUBATAN MENARA SDN BHD,"LEVEL 26, TM ANNEXE 2, JALAN PANTAI BAHARU, 59200 KUALA LUMPURKUALA LUMPUR59200WILAYAH PERSEKUTUAN KUALA LUMPUR",faizalmenara@gmail.com,03-22414101,101.6636835,3.115624
489,PUSAT RAWATAN IZHAM,"NO 21 JALAN 12/144A , TAMAN BUKIT CHERASCHERAS56000WILAYAH PERSEKUTUAN KUALA LUMPUR",pusatrawatanizham@gmail.com,03-91016320,101.7487857,3.0700115
490,QUALITAS HEALTH CLINIC @ BANGSAR,"LOT G116, GROUND FLOOR, BANGSAR SHOPPING CENTRE285 JALAN MAAROF, BUKIT BANDARAYA,BANGSAR59000WILAYAH PERSEKUTUAN KUALA LUMPUR",cbsc@qualitas.com.my,0320114336,101.6673653,3.1431754
491,QUALITAS HEALTH KLINIK & SURGERI TRADERS SQUARE,"13-G (GF), JALAN DATARAN CHERAS,1, DATARAN PERNIAGAAN CHERAS, CHERAS SELATAN,CHERAS43200WILAYAH PERSEKUTUAN KUALA LUMPUR",qualitas.ksts@gmail.com,0390817012,101.7630028,3.0350292
492,QUALITAS HEALTH KLINIK FAMILI MEDIVISTA,"1-18,RESIDENSI PARK BUKIT JALILPERSIARAN JALIL UTAMA,BUKIT JALIL57000WILAYAH PERSEKUTUAN KUALA LUMPUR",dr.rinathreasa@gmail.com,0127710046,101.6732534,3.0522632
493,QUALITAS HEALTH KLINIK PANTAI,"NO. 1-16, CENTRIO PANTAINO. 1, JALAN PANTAI MURNI, PANTAI HILLPARKKUALA LUMPUR59200WILAYAH PERSEKUTUAN KUALA LUMPUR",klinikpantai@gmail.com,0327760415,101.6657838,3.1081104
494,QUALITAS HEALTH KLINIK SUNRISE,"NO. 11, JALAN 20B/146, DESA TASIKSUNGEI BESIKUALA LUMPUR57000WILAYAH PERSEKUTUAN KUALA LUMPUR",kliniksunrise@gmail.com,0390541600,101.6888005,3.0965161
495,R CLINIC,"NO.11 (G), JALAN MANIS 4, TAMAN SEGAR,CHERAS56100WILAYAH PERSEKUTUAN KUALA LUMPUR",klinik_r@yahoo.com,0391344486,101.7435187,3.0887429
496,REDDY CLINIC SDN BHD,"REDDY CLINIC SDN BHD121, JALAN IPOHKUALA LUMPUR51200WILAYAH PERSEKUTUAN KUALA LUMPUR",rcji@qualitas.com.my,03-40412611,101.693211,3.1715469
497,SENA CLINIC,"32A-G, JALAN RADIN BAGUS 3, SERI PETALING,57000 WP KUALA LUMPURSERI PETALING57000WILAYAH PERSEKUTUAN KUALA LUMPUR",senawellness@gmail.com,03-90546042,101.6921574,3.0698298
498,THE DOCTORS' CLINIC,D-0-7 JALAN 1/155A ARENA GREEN APARTMENTSBUKIT JALIL57000WILAYAH PERSEKUTUAN KUALA LUMPUR,tdcbukitjalil@hotmail.com,03-89994150,101.6650257,3.0611968
499,THE KL CLINIC (ROHAS PERKASA),"MEZZANINE FLOOR, EAST WING,ROHAS PERKASA, NO. 9 JALAN P.RAMLEEKUALA LUMPUR50250WILAYAH PERSEKUTUAN KUALA LUMPUR",klclinic.rohas@gmail.com,03-21660395,101.708742,3.154819
500,THE KL CLINIC (UBN TOWER),"2ND FLOOR, UBN TOWER, LETTER BOX 6710, JALAN P.RAMLEEKUALA LUMPUR50250WILAYAH PERSEKUTUAN KUALA LUMPUR",klclinic.ubn@gmail.com,03-20722239,101.7083316,3.1547272
501,THE KL SKY CLINIC,"B1-36-2,SOHO SUITES KLCC,JALAN PERAK,KUALA LUMPUR50450WILAYAH PERSEKUTUAN KUALA LUMPUR",theklskyclinic@gmail.com,03-23890091,101.7101195,3.1536351
502,THE SUISSE CLINIC,"A-M-2, NORTHPOINT OFFICES,NO.1, JALAN MEDAN SYED PUTRA UTARAMIDVALLEY CITY59200WILAYAH PERSEKUTUAN KUALA LUMPUR",maxx.ng@thesuisseclinic.com,0322836886,101.6777,3.1204389
503,TMC MEDI CLINIC,"BLOCK D5-G4-01, LEVEL G4, SOLARIS DUTAMAS (PUBLIKA)1, JALAN DUTAMAS 1,KUALA LUMPUR50480WILAYAH PERSEKUTUAN KUALA LUMPUR",tmcmedi2014@gmail.com,0166088846,101.6663415,3.1705013
504,TRUE-CARE CLINIC,"UNIT 1.01B, 1ST FLOOR, MERCU 2, KL ECO CITY,JALAN BANGSAR, KAMPUNG ABDULLAH HUKUM,KUALA LUMPUR59200WILAYAH PERSEKUTUAN KUALA LUMPUR",truecareclinicecocity@gmail.com,0322023777,101.6738204,3.1187357
505,TWIN TOWERS MEDICAL CLINIC,"LOT LC 402-404, 4TH FLOOR SURIA KLCCKUALA LUMPUR CITY CENTREKUALA LUMPUR50088WILAYAH PERSEKUTUAN KUALA LUMPUR",myttmc.marketing@ttmc-klcc.com,0323823500,101.7121716,3.1577167
506,U.N.I KLINIK,"G-20, RESIDENSI AWANINO 27, JALAN SENTUL PERDANAKUALA LUMPUR51100WILAYAH PERSEKUTUAN KUALA LUMPUR",uniklinikskyawani@gmail.com,0340316902,101.6923665,3.1811946
507,U.N.I KLINIK,"10, JALAN TUN MOHD FUAD 1TAMAN TUN DR ISMAILWP KUALA LUMPUR60000WILAYAH PERSEKUTUAN KUALA LUMPUR",u.n.iklinikttdi@gmail.com,0377328664,101.6282878,3.1398323
508,U.N.I KLINIK,"U.N.I CLINIC KUALA LUMPUR TRADERS SQUARE , NO 13A-G (GROUND FLOOR ) KL TRADERS SQUARE289 JALAN GOMBAKKUALA LUMPUR53000WILAYAH PERSEKUTUAN KUALA LUMPUR",admin@uniclinic.care,60340322840,101.7034804,3.2040754
509,U.N.I KLINIK,"NO 80, JALAN DWITASIK, DATARAN DWITASIKBANDAR SRI PERMAISURICHERAS55100WILAYAH PERSEKUTUAN KUALA LUMPUR",uniklinik.cheras@gmail.com,0391745048,101.7132025,3.1016022
510,U.N.I KLINIK,G-6 PANGSAPURI SUITE DANAU KOTANO. 1 JLN 6A/6 OFF JLN TMN IBU KOTADANAU KOTA53300WILAYAH PERSEKUTUAN KUALA LUMPUR,uniklinikdanaukota@gmail.com,0327029036,101.7190046,3.208841
511,UNI KLINIK TAMAN PERMATA,NO 3 PERSIARAN PERMATATAMAN PERMATAHULU KELANG53300WILAYAH PERSEKUTUAN KUALA LUMPUR,unikliniktmnpermata@gmail.com,0341613330,101.7519823,3.206214
512,UNITED HEALTH CLINIC,"G-02, RESIDENSI HENGE, JALAN METRO PERDANA BARAT,TAMAN METROPOLITAN,KEPONGKUALA LUMPUR52100WILAYAH PERSEKUTUAN KUALA LUMPUR",unitedhealthclinic.uhc@gmail.com,0327805084,101.6414513,3.2210887